name,phone,url,street,suburb,state,postcode
Richardson Building Contractors,0400 31 9663,https://www.localsearch.com.au/profile/rbc-richardson-building-contractors/proserpine-qld/bwGv,6 Kentia St,Palm Cove,QLD,4879
UAV Condition Assessment Australia - Drone Services,0400 38 3601,https://www.localsearch.com.au/profile/uav-condition-assessment-australia-drone-services/cltnvyp7n000j08l55kl773qv,55 Foxville Circuit,Trinity Park,QLD,4879
Hiles Construction,0400 62 7980,https://www.localsearch.com.au/profile/hiles-construction/cl9we2x0k003e09le121984rb,187 Aumuller St,Bungalow,QLD,4870
BT Designer Homes,0400 65 3334,https://www.localsearch.com.au/profile/bt-designer-homes/mooroobool-qld/KsUW,,Mooroobool,QLD,4870
B & M Constructions,0405 99 1375,https://www.localsearch.com.au/profile/b-and-m-constructions-pty-ltd/cltnx4b37003l09ld4aakdv1j,,Mowbray,QLD,4877
RGM Constructions,0407 14 8878,https://www.localsearch.com.au/profile/rgm-constructions/yorkeys-knob-qld/a2fo,12/455 Varley St,Yorkeys Knob,QLD,4878
NQ Homes Tropical Living,0407 45 1285,https://www.localsearch.com.au/profile/nq-homes-tropical-living-pty-ltd/clto3hemj01b508l41d44845h,7-9 Dickson St,Craiglie,QLD,4877
Brett Oakley Builders,0407 58 9583,https://www.localsearch.com.au/profile/brett-oakley-builders/stratford-qld/xKnK,,Stratford,QLD,4870
Bluewater Builders,0407 59 2477,https://www.localsearch.com.au/profile/bluewater-builders/trinity-beach-qld/25wZ,,Trinity Beach,QLD,4879
Macpark Building Co.,0408 07 2110,https://www.localsearch.com.au/profile/macpark-building-co/redlynch-qld/L4Vp,,Machans Beach,QLD,4878
Koru Building Contractors,0408 29 0546,https://www.localsearch.com.au/profile/koru-building-contractors/manunda-qld/yRLh,1/92 Anderson Street,Manunda,QLD,4870
Unique Constructions Nth Qld,0408 53 6942,https://www.localsearch.com.au/profile/unique-constructions-nth-qld/smithfield-qld/MnKf,68 Argentea Blvd,Palm Cove,QLD,4879
Dungar Blocklaying,0408 77 3155,https://www.localsearch.com.au/profile/dungar-blocklaying/clifton-beach-qld/o9rZ,,Clifton Beach,QLD,4879
Allan Sultana Constructions,0408 77 3186,https://www.localsearch.com.au/profile/allan-sultana-constructions/belvedere-qld/1MNR,36 Shaw Rd,Belvedere,QLD,4860
Gary Riches Builders,0408 77 3377,https://www.localsearch.com.au/profile/gary-riches-builders/bentley-park-qld/bpBE,38 Supply Rd,Bentley Park,QLD,4869
John Pecl Builder,0408 77 3639,https://www.localsearch.com.au/profile/john-pecl-builders/edge-hill-qld/dnz7,,Edge Hill,QLD,4870
Colin Richardson Homes,0408 82 9344,https://www.localsearch.com.au/profile/colin-richardson-homes/smithfield-qld/XQnq,,Smithfield,QLD,4878
Boscon Constructions,0409 38 3596,https://www.localsearch.com.au/profile/boscon-constructions/cairns-city-qld/O8QM,57 Scott St,Cairns City,QLD,4870
Michael Hoare Builders,0409 56 3123,https://www.localsearch.com.au/profile/michael-hoare-builders/gordonvale-qld/Bger,,Gordonvale,QLD,4865
Harvey Norman Commercial Cairns,0412 10 3258,https://www.localsearch.com.au/profile/harvey-norman-commercial-cairns/cltnzu7yz002g08jw39uggid5,302 Spence St,Bungalow,QLD,4870
Dea-Co,0412 77 0264,https://www.localsearch.com.au/profile/dea-co/mount-sheridan-qld/nXhj,,Mount Sheridan,QLD,4868
East Coast Designer Builders,0413 01 3004,https://www.localsearch.com.au/profile/east-coast-designer-builders/cairns-qld-4870/v2Sm,,Cairns,QLD,4870
Mick Langtree Builders,0413 26 9331,https://www.localsearch.com.au/profile/mick-langtree-builders/cairns-qld-4870/Z2Oh,50 Norman St,Gordonvale,QLD,4865
Eden by Design Builders,0413 60 8514,https://www.localsearch.com.au/profile/eden-by-design-builders/clto0oe5000h108lb4mwadab3,,Whitfield,QLD,4870
Custom Homes,0413 81 9108,https://www.localsearch.com.au/profile/custom-homes/clto3glz4003t08lb9wo0hzhq,9 Whipbird Dr,Smithfield,QLD,4878
Craig Cooper Builders,0414 15 3550,https://www.localsearch.com.au/profile/craig-cooper-builders/cairns-qld-4870/j8sW,,Cairns,QLD,4870
Phil Kelly Builders,0414 26 8630,https://www.localsearch.com.au/profile/phil-kelly-builders/kewarra-beach-qld/O5TX,97 Moore St,Kewarra Beach,QLD,4879
JMT Building Services,0415 17 9058,https://www.localsearch.com.au/profile/jmt-building-services/woree-qld/qV3j,,Palm Cove,QLD,4879
LJ Constructions,0417 00 4275,https://www.localsearch.com.au/profile/lj-construction/redlynch-qld/NGLU,,Redlynch,QLD,4870
Manning Builders,0417 05 8868,https://www.localsearch.com.au/profile/manning-builders/cairns-qld-4870/J5of,,Cairns,QLD,4870
Cool Build,0417 09 7013,https://www.localsearch.com.au/profile/cool-build/manoora-qld/4Ni9,,Bayview Heights,QLD,4868
Eldred Waterproofing,0418 26 7240,https://www.localsearch.com.au/profile/eldred-waterproofing/whitfield-qld/IlJr,,Whitfield,QLD,4870
Eldred Construction Services,0418 26 7240,https://www.localsearch.com.au/profile/eldred-construction-services/cairns-qld-4870/OL3k,,Cairns,QLD,4870
Dozoco Building Services,0418 76 0644,https://www.localsearch.com.au/profile/dozoco-building-services/malanda-qld/61al,,Malanda,QLD,4885
Kenick Constructions,0419 18 4478,https://www.localsearch.com.au/profile/kenick-constructions/redlynch-qld/LWdu,,Redlynch,QLD,4870
Max Edwards Builders,0419 18 7401,https://www.localsearch.com.au/profile/max-edwards-builders/clto0cyof006i08jm9vbx4tsh,23 McFarlane Dr,Kanimbla,QLD,4870
Matt Greenwood Constructions,0419 67 7255,https://www.localsearch.com.au/profile/matt-greenwood-constructions/gordonvale-qld/yZ6p,,Gordonvale,QLD,4865
Liam Gilligan Builders,0419 67 7413,https://www.localsearch.com.au/profile/liam-gilligan-builders/westcourt-qld/zLKO,,Westcourt,QLD,4870
Justmill Carpentry & Building,0419 71 5863,https://www.localsearch.com.au/profile/justmill-carpentry-building/smithfield-qld/d5EK,,Smithfield,QLD,4878
Urban Abode Building Design,0419 72 3253,https://www.localsearch.com.au/profile/urban-abode-building-design-by-lisa/cairns-qld-4870/Srqj,254 Toogood Rd,Bayview Heights,QLD,4868
HOB Constructions,0422 08 3655,https://www.localsearch.com.au/profile/hob-constructions/clogxoyc6000808jj4os6he7o,61 63 Catalano Access Rd,Goldsborough,QLD,4865
CMT Constructions FNQ,0422 16 3484,https://www.localsearch.com.au/profile/cmt-constructions-fnq/earlville-qld/WfBt,,Earlville,QLD,4870
Cougar Homes Cairns,0423 52 7829,https://www.localsearch.com.au/profile/cougar-homes/manunda-qld/7QrX,Unit 4 7 Anderson St,Manunda,QLD,4870
RJ Build FNQ,0424 28 7040,https://www.localsearch.com.au/profile/rj-build-fnq/brinsmead-qld/SxwN,8 Sophie Cl,Brinsmead,QLD,4870
Sharples Quality Building Solutions,0427 11 8261,https://www.localsearch.com.au/profile/sharples-quality-building-solutions/cltnxffy100em08i9ezipgjrz,7 McPhail St,Edmonton,QLD,4869
Formosa Construction & Fabrication,0427 40 5377,https://www.localsearch.com.au/profile/formosa-construction-and-fabrication/cltnzndc300mt08l84fzl43ss,14 Barry St,Bungalow,QLD,4870
Aron Littlemore Builder,0427 77 5114,https://www.localsearch.com.au/profile/littlemore-aron-builder-carpenter/redlynch-qld/GUZe,,Redlynch,QLD,4870
Ison Building,0428 88 5126,https://www.localsearch.com.au/profile/ison-building/mount-sheridan-qld/H3cw,,Manunda,QLD,4868
Osborne Construction Solutions,0429 29 1166,https://www.localsearch.com.au/profile/osborne-construction-solutions/cairns-city-qld/wGGN,,Cairns City,QLD,4870
SJ Lloyd Construction,0429 96 1136,https://www.localsearch.com.au/profile/s-j-lloyd-construction/smithfield-qld/Ov9v,,Kewarra Beach,QLD,4879
Omni Builders,0432 08 4781,https://www.localsearch.com.au/profile/omni-builders/bungalow-qld/rsJm,12/ 107-111 Newell St,Bungalow,QLD,4870
Neocon Homes,0432 08 4781,https://www.localsearch.com.au/profile/neocon-homes/bungalow-qld/hDUP,,Brinsmead,QLD,4870
Re Designer Homes,0433 44 6900,https://www.localsearch.com.au/profile/re-designer-homes/clto054oh004m08jpfhqga9ns,,Trinity Beach,QLD,4879
Brad Blackman Builder,0438 11 6120,https://www.localsearch.com.au/profile/brad-blackman-builder/mount-sheridan-qld/eFZs,,Mount Sheridan,QLD,4868
Jennings Constructions (QLD) Pty Ltd,0438 34 7987,https://www.localsearch.com.au/profile/jennings-constructions-qld-pty-ltd/clto0lk9500cb08l9ak669zj5,25 Savannah St,Palm Cove,QLD,4879
Kjak Building services,0438 75 5861,https://www.localsearch.com.au/profile/kjak-building-services/cltnxh9md00gm08jubzkf4rcf,4 Flora Cl,Clifton Beach,QLD,4879
Eastbuild Designer,0438 87 6221,https://www.localsearch.com.au/profile/eastbuild-designer/clifton-beach-qld/XiCL,29 Arlington Esplanade,Clifton Beach,QLD,4879
Nathan Verri,0438 98 4951,https://www.localsearch.com.au/profile/nathan-verri/palm-cove-qld/LdJ9,2/84 Veivers Road,Palm Cove,QLD,4879
Legends Build Group,0439 35 0215,https://www.localsearch.com.au/profile/legends-build-group/cairns-qld-4870/RUNo,,Cairns,QLD,4870
Brendan Grant Homes,0439 95 2405,https://www.localsearch.com.au/profile/brendan-grant-homes/cairns-qld-4870/9Ydr,,Cairns,QLD,4870
McIntosh Builders Pty Ltd,0447 51 2898,https://www.localsearch.com.au/profile/mcintosh-builders-pty-ltd/manoora-qld/CmWc,72 Reservoir Rd,Manoora,QLD,4870
Fineline Construction,0448 70 5828,https://www.localsearch.com.au/profile/fineline-construction/redlynch-qld/KgjL,,Redlynch,QLD,4870
Combined Constructions (NQ),0448 78 7801,https://www.localsearch.com.au/profile/combined-constructions-nq/cl7mof97r009u09mhbruz1pnl,,Mount Peter,QLD,4869
Five Rivers Construction,0474 82 6546,https://www.localsearch.com.au/profile/five-rivers-construction/cairns-qld-4870/5fsR,300 Draper Street,Parramatta Park,QLD,4870
CDC Build,0475 77 2682,https://www.localsearch.com.au/profile/cdc-build/whitfield-qld/IoKS,,Whitfield,QLD,4870
Nuveau Constructions,0477 77 1180,https://www.localsearch.com.au/profile/nuveau-constructions-qld-pty-ltd/cltnxim2g00a508joc9mzh432,Unit 3/351 Sheridan Street,Cairns North,QLD,4870
My Build Solutions,0477 84 2007,https://www.localsearch.com.au/profile/my-build-solutions/clo3xcnz8001e08kwdid5ffik,Shop 452 Sheridan St,Cairns North,QLD,4870
MYBUILD Solutions,0477 84 2007,https://www.localsearch.com.au/profile/mybuild-solutions/cairns-qld-4870/NMgm,452 Sheridan St,CAIRNS,QLD,4870
Anna Cartaar Building Design,0488 60 0006,https://www.localsearch.com.au/profile/anna-cartaar-building-design/cairns-qld-4870/vs2T,,CAIRNS,QLD,4870
Adel Tawdrous Building & Refurbishments,0491 36 1057,https://www.localsearch.com.au/profile/adel-tawdrous-building-refurbishments/smithfield-qld/NAfu,31 Ashwood Cct,Smithfield,QLD,4878
Premier Building QLD,0493 85 9471,https://www.localsearch.com.au/profile/premier-building-qld/cm7lgvo8r000108jmgf1935jx,,Speewah,QLD,4881
Consider It Done - Building Solutions,0499 80 0292,https://www.localsearch.com.au/profile/consider-it-done-building-solutions/portsmith-qld/jGPT,,Portsmith,QLD,4870
Sawcom Homes,0499 84 5222,https://www.localsearch.com.au/profile/sawcom-constructions/portsmith-qld/mYB5,Cnr Bunda St & Hartley St,Portsmith,QLD,4870
Designer Homes,07 4000 0484,https://www.localsearch.com.au/profile/designer-first-homes/bungalow-qld/iAEf,3 150 Lyons St,Bungalow,QLD,4870
Freshwater Designer Builders,07 4027 9795,https://www.localsearch.com.au/profile/freshwater-designer-builders/stratford-qld/ujKE,Shed 9 Industrial Ave,Stratford,QLD,4870
MB Construction QLD Pty Ltd,07 4031 0869,https://www.localsearch.com.au/profile/mb-construction-qld-pty-ltd/bungalow-qld/6YzV,8 Doyle St,BUNGALOW,QLD,4870
Advantage Sports & Leisure,07 4031 2742,https://www.localsearch.com.au/profile/advantage-sports-and-leisure/clto1bl0a004z08l53735d9do,226 Draper St,Cairns City,QLD,4870
Thirkell Consulting Engineers & Building Design,07 4031 2821,https://www.localsearch.com.au/profile/thirkell-consulting-engineers-building-design/cairns-city-qld/75zR,9 Palm Avenue,Parramatta Park,QLD,4870
Building Futures Queensland,07 4032 5335,https://www.localsearch.com.au/profile/building-futures-queensland/parramatta-park-qld/zEFk,9 Palm Ave,Parramatta Park,QLD,4870
Kenfrost Homes,07 4032 6100,https://www.localsearch.com.au/profile/kenfrost-homes/manunda-qld/6yPX,75-77 Alfred St,MANUNDA,QLD,4870
Key Start Homes,07 4032 6100,https://www.localsearch.com.au/profile/key-start-homes/manunda-qld/xHnU,75-77 Alfred St,Cairns,QLD,4870
All Seasons Home Improvements,07 4033 1566,https://www.localsearch.com.au/profile/all-seasons-home-improvements/bungalow-qld/2dj7,191 Newell St,Bungalow,QLD,4870
Bridgewater Builders,07 4033 2100,https://www.localsearch.com.au/profile/bridgewater-builders-smithfield-village-display-home/cltnzlcxj00mn08l9brdb3ln1,158 Buchan St,Bungalow,QLD,4870
Richardsons Building Service,07 4033 7427,https://www.localsearch.com.au/profile/richardsons-building-service/bungalow-qld/6O5S,160 Mccoombe St,Bungalow,QLD,4870
Duce Constructions,07 4033 7476,https://www.localsearch.com.au/profile/duce-constructions/woree-qld/7Ss4,,Woree,QLD,4868
Becka Constructions,07 4034 3295,https://www.localsearch.com.au/profile/becka-constructions/edge-hill-qld/P1PZ,,Edge Hill,QLD,4870
Keir QLD,07 4035 2056,https://www.localsearch.com.au/profile/keir-qld/cairns-qld-4870/02WL,Unit 38 Rutherford St,Cairns North,QLD,4870
La Spina Homes,07 4035 2488,https://www.localsearch.com.au/profile/la-spina-homes/bungalow-qld/30rZ,116 Buchan St,Cairns,QLD,4870
Hansen Yuncken Cairns,07 4037 5500,https://www.localsearch.com.au/profile/hansen-yuncken/westcourt-qld/YvC4,Level 140 Mulgrave Rd,Cairns City,QLD,4870
Austart Homes,07 4038 3855,https://www.localsearch.com.au/profile/austart-homes/smithfield-qld/WL09,2 Mount Milman Dr,Smithfield,QLD,4878
Ash Moseley Homes,07 4038 3911,https://www.localsearch.com.au/profile/ash-moseley-homes/smithfield-qld/TOnl,37 Mount Milman Dr,Smithfield,QLD,4878
ForestOne,07 4038 7300,https://www.localsearch.com.au/profile/forestone/clto0ym8q00nw08l95g73a584,303 Little Spence St,Bungalow,QLD,4870
Hutchinson Builders,07 4038 9000,https://www.localsearch.com.au/profile/hutchinson-builders/smithfield-qld/LEgy,3 Mount Finnigan Ct,Smithfield,QLD,4878
Bryant Building Contractors Cairns,07 4040 6400,https://www.localsearch.com.au/profile/bryant-building-contractors/cairns-qld-4870/HHRo,32 Minnie St,Cairns,QLD,4870
MiHaven,07 4041 0407,https://www.localsearch.com.au/profile/mihaven/parramatta-park-qld/ohvZ,92 Martyn St,Parramatta Park,QLD,4870
Smith & Sons Renovations & Extensions Cairns,07 4041 3325,https://www.localsearch.com.au/profile/smith-and-sons-renovations-and-extensions-cairns-south/cl7zl1hbk000809mh4hdp4zpq,16 38 42 Pease St,Manoora,QLD,4870
Value Homes,07 4041 3333,https://www.localsearch.com.au/profile/value-homes/cairns-qld-4870/JMo8,144 Mulgrave Rd,Cairns,QLD,4870
G.J Gardner Cairns,07 4041 6696,https://www.localsearch.com.au/profile/g-j-gardner-homes/bungalow-qld/2MEg,Shop 1 255 Mulgrave Rd,Cairns,QLD,4870
G.J. Gardner Homes,07 4041 6696,https://www.localsearch.com.au/profile/g-j-gardner-homes/trinity-beach-qld/fvtJ,1 Master Cct,Trinity Beach,QLD,4879
Master Builders - Far North Queensland,07 4042 8800,https://www.localsearch.com.au/profile/master-builders-far-north-queensland/manunda-qld/Nfny,310-314 Gatton St,Manunda,QLD,4870
Ashlee Jones Homes,07 4045 0872,https://www.localsearch.com.au/profile/ashlee-jones-homes/gordonvale-qld/UVJi,154 Hall Rd,Gordonvale,QLD,4865
Semrau Constructions,07 4045 3711,https://www.localsearch.com.au/profile/semrau-constructions-pty-ltd/bentley-park-qld/7CZp,23 Barcoo Cl,Bentley Park,QLD,4869
Intrust Group,07 4049 2867,https://www.localsearch.com.au/profile/intrust-group/clhdztmwy000808k2eqb3c6t3,Shed 2 55 Cook St,Portsmith,QLD,4870
Dixon Homes Cairns,07 4050 5200,https://www.localsearch.com.au/profile/dixon-homes-cairns/westcourt-qld/1xjo,172 Mulgrave Rd,Westcourt,QLD,4870
Bell's Carrying & Crane Hire Service Pty Ltd,07 4051 2063,https://www.localsearch.com.au/profile/bell-s-carrying-crane-hire-service-pty-ltd/bungalow-qld/Di7H,153-159 Brown St,Bungalow,QLD,4870
Strategic Builders,07 4052 1515,https://www.localsearch.com.au/profile/strategic-builders/manunda-qld/3EDP,,Manunda,QLD,4870
Matt Birney Builders,07 4053 1905,https://www.localsearch.com.au/profile/matt-birney-builders/aeroglen-qld/01Tg,1 Magee St,Aeroglen,QLD,4870
MAXA Constructions Cairns,07 4053 3717,https://www.localsearch.com.au/profile/maxa-constructions/cairns-qld-4870/C4Xc,72A Martyn Street,Parramatta Park,QLD,4870
R.C. Harder & Co,07 4054 1377,https://www.localsearch.com.au/profile/r-c-harder-co/earlville-qld/DGQb,,Earlville,QLD,4870
Cairns Quality Homes,07 4054 6363,https://www.localsearch.com.au/profile/cairns-quality-homes/westcourt-qld/qxA1,191 Newell St,Cairns,QLD,4870
Neater Homes,07 4055 2500,https://www.localsearch.com.au/profile/neater-constructions/cairns-qld-4870/4qhV,138 McLeod St,Cairns,QLD,4870
WIP Asbestos Removal,07 4058 0221,https://www.localsearch.com.au/profile/wip-asbestos-removal/stratford-qld/VJek,24 Magazine St,Stratford,QLD,4870
WIP Construction,07 4058 0221,https://www.localsearch.com.au/profile/wip-construction/stratford-qld/8PC1,24 Magazine St,Stratford,QLD,4870
WIP Construction Stratford,07 4058 0221,https://www.localsearch.com.au/profile/wip-construction/stratford-qld/Eu8O,24 Magazine Street,Stratford,QLD,4870
Corica Constructions,07 4061 7915,https://www.localsearch.com.au/profile/corica-constructions/coconuts-qld/YzdR,18 Bay Rd,Coconuts,QLD,4860
Cairns Carpenters,07 4079 0759,https://www.localsearch.com.au/profile/cairns-carpenters/clzqves1m003u08l9fb5lhttv,,Cairns City,QLD,4870
James Nasser Constructions,07 4095 0165,https://www.localsearch.com.au/profile/james-nasser-constructions/upper-barron-qld/DkL7,,Upper Barron,QLD,4883
Higham Building Group,07 4095 8597,https://www.localsearch.com.au/profile/higham-building-group/atherton-qld/F2Jk,,Kairi,QLD,4872
Beck Building,07 4231 9634,https://www.localsearch.com.au/profile/beck-building/smithfield-qld/lTHh,3 8 Maisel Cl,Smithfield,QLD,4878
Hedley Homes,07 4231 9999,https://www.localsearch.com.au/profile/hedley-homes/cairns-qld-4870/n7E7,14 Adelaide St,Manunda,QLD,4870
Freedom Constructions QLD,07 4250 3733,https://www.localsearch.com.au/profile/freedom-constructions/bungalow-qld/D3p6,46b Nelson St,Bungalow,QLD,4870
Rapid Building Approvals - Building Certifiers Cairns,1300 16 3814,https://www.localsearch.com.au/profile/rapid-building-approvals-building-certifiers-cairns/cltnz62uc001808jwehwd33ux,Unit 7 4 Stanton Rd,Smithfield,QLD,4878
Enclave Cairns,1300 19 7345,https://www.localsearch.com.au/profile/enclave-cairns/clto438d5006z08l2ahlbavvk,8 Jacamunda Cct,Earlville,QLD,4870
Boral Quarries Redlynch,1300 30 5978,https://www.localsearch.com.au/profile/boral-quarries-redlynch/cltny7mdz009z08l3d7b2228w,Redlynch Intake Rd,Redlynch,QLD,4870
Integrity New Homes Cairns,1300 88 6793,https://www.localsearch.com.au/profile/integrity-new-homes-cairns/cltnwskch002a08i6ejw7annb,8 175 Bunda St,Parramatta Park,QLD,4870
Allaro Homes Cairns,N/A,https://www.localsearch.com.au/profile/allaro-homes-cairns/cairns-qld-4870/a1ER,189 Aumuller St,Cairns,QLD,4870
MyStyle Homes,N/A,https://www.localsearch.com.au/profile/mystyle-homes/cairns-qld-4870/wupr,55 Anderson St,Cairns,QLD,4870
VIS Constructions,N/A,https://www.localsearch.com.au/profile/vis-constructions/manunda-qld/HtBU,5/206 McCormack Street,Manunda,QLD,4870
Ben Auden Constructions,N/A,https://www.localsearch.com.au/profile/ben-auden-constructions/cairns-qld-4870/0Jpk,,Mooroobool,QLD,4870
