name,phone,url,street,suburb,state,postcode
Tull's Tree & Garden Service,0400 41 4228,https://www.localsearch.com.au/profile/tull-s-tree-garden-service/cairns-qld-4870/PkPP,,Cairns,QLD,4870
Acreage Mowing FNQ,0400 70 9408,https://www.localsearch.com.au/profile/acreage-mowing-fnq/clhqthyb4000908med7zo5c42,,Babinda,QLD,4861
A Concrete Edge,0400 79 6704,https://www.localsearch.com.au/profile/a-concrete-edge/cairns-qld/WM1m,,Woopen Creek,QLD,4871
Handy Manny,0402 02 8623,https://www.localsearch.com.au/profile/handy-manny/trinity-beach-qld/HYW5,,Trinity Beach,QLD,4879
NQ Garden Maintenance,0403 29 6704,https://www.localsearch.com.au/profile/nq-garden-maintenance/clk0z6b5f000d08l8e8r75zm6,,Edmonton,QLD,4869
Coast 2 Coast Building & Property Maintenance,0406 14 1005,https://www.localsearch.com.au/profile/coast-2-coast-building-property-maintenance/cairns-qld-4870/H0HF,,Cairns,QLD,4870
Suzan Quigg Landscape Design,0407 03 5381,https://www.localsearch.com.au/profile/suzan-quigg-landscape-design/malanda-qld/ZMkW,,Malanda,QLD,4885
The Whipper Snipper,0407 32 3833,https://www.localsearch.com.au/profile/the-whipper-snipper/clhodf8as000z08mf14wh9bkl,,Cairns,QLD,4870
The Garden Tamers,0408 66 2282,https://www.localsearch.com.au/profile/the-garden-tamers/cairns-qld-4870/RBlE,,Cairns,QLD,4870
Steve's Lawn Mowing Services,0408 98 2036,https://www.localsearch.com.au/profile/steve-s-lawn-mowing-services/bungalow-qld/il5i,43 Hannam St,Bungalow,QLD,4870
FNQ Grass Cutters,0411 34 1707,https://www.localsearch.com.au/profile/fnq-grass-cutters/clny34h02000808mg784f0kpn,,Kewarra Beach,QLD,4879
FNQ Lawn Care,0412 35 9378,https://www.localsearch.com.au/profile/fnq-lawn-care/clhhq32ez000808l5a4sb82pn,,White Rock,QLD,4868
Benchmark Landscape Group,0412 58 3525,https://www.localsearch.com.au/profile/benchmark-landscape-group-pty-ltd/clto3424i007v08lhhodgbxiv,,Whitfield,QLD,4870
Where's Wally Landscaping and Garden Services,0412 86 0614,https://www.localsearch.com.au/profile/where-s-wally-landscaping-garden-services/cairns-qld-4870/KWLz,,Cairns City,QLD,4870
Northern Lawn & Garden Care,0413 47 4125,https://www.localsearch.com.au/profile/northern-lawn-garden-care/trinity-beach-qld/E54m,,Trinity Beach,QLD,4879
All Clear Property Care,0414 75 1711,https://www.localsearch.com.au/profile/all-clear-property-care/kamerunga-qld/QXnP,,Kamerunga,QLD,4870
Aya Garden Solution,0415 05 0409,https://www.localsearch.com.au/profile/aya-garden-solution/cltnwwo9b009i08lb868y2uva,,Machans Beach,QLD,4878
Australian Turf Management,0415 35 1880,https://www.localsearch.com.au/profile/australian-turf-management/clto01l4r000z08l4b8tcgsiu,1 Larsen Rd,Redlynch,QLD,4870
Cairns Complete Gardening,0417 63 5791,https://www.localsearch.com.au/profile/cairns-complete-gardening/gordonvale-qld/iuwQ,1 Mercy Cl,Gordonvale,QLD,4865
All Suburbs Garden Bags,0417 85 3609,https://www.localsearch.com.au/profile/all-suburbs-garden-bags/kanimbla-qld/q1az,,Kanimbla,QLD,4870
Cahill’s Lawn Services,0418 14 8366,https://www.localsearch.com.au/profile/cahill-s-garden-services/bayview-heights-qld/39ZY,,Bayview Heights,QLD,4868
1st Choice Property Maintenance,0418 37 1282,https://www.localsearch.com.au/profile/1st-choice-property-maintenance/cltnwmtum004o08l577cv64tx,,Edmonton,QLD,4869
Cairns Manicured Lawns,0418 57 8729,https://www.localsearch.com.au/profile/cairns-manicured-lawns/kewarra-beach-qld/jlki,8 Glenelg Cl,Kewarra Beach,QLD,4879
Fred Greaves fencing jobs under 3300,0418 77 3830,https://www.localsearch.com.au/profile/fred-greaves-fencing-jobs-under-3300/cltnzfdw1001u08k1eyxwa3gt,Mann St,Westcourt,QLD,4870
Clean Care Cairns,0418 80 8995,https://www.localsearch.com.au/profile/clean-care-cairns/clto203gu00uv08jpbcrr0a36,11A Sheridan St,Cairns City,QLD,4870
Darryl's Lawncare Service,0418 87 4477,https://www.localsearch.com.au/profile/darryls-lawncare-service/cltnzhunb003d08jk8o8t8w5f,21 Moody St,Manunda,QLD,4870
Draks NQ,0419 02 9446,https://www.localsearch.com.au/profile/draks-nq/manunda-qld/UXKV,,Manunda,QLD,4870
Lawns 4 Less Cairns,0420 44 4911,https://www.localsearch.com.au/profile/lawns-4-less-cairns/mount-sheridan-qld/PARr,,Parramatta Park,QLD,4870
Pynes Indoor Plant Hire & Garden Management,0421 54 6597,https://www.localsearch.com.au/profile/pynes-indoor-plant-hire-garden-management/cairns-qld-4870/uG4g,Lot 71509 71509 Bruce Hwy,Gordonvale,QLD,4865
Coral Coast Mowing & Gardens,0421 92 2539,https://www.localsearch.com.au/profile/coral-coast-mowing-and-gardens/clto3rfem002l08l6c7m03ekj,6 Craven St,Redlynch,QLD,4870
Dan's Garden Care,0426 51 2015,https://www.localsearch.com.au/profile/dan-s-garden-care/kewarra-beach-qld/hNwB,,Kewarra Beach,QLD,4879
Hard Yakka Gardening and Pest Control,0426 67 6641,https://www.localsearch.com.au/profile/hard-yakka-gardening-and-pest-control/clqbwwjq1001q08lb8y31huyr,,Goldsborough,QLD,4865
Green Hills Lawn & Garden Care,0427 16 9094,https://www.localsearch.com.au/profile/green-hills-lawn-and-garden-care/cm17ku9e9001r08ld2jgic8sc,,Millaa Millaa,QLD,4886
Cairns Garden & Tree Lopping Services,0427 52 7481,https://www.localsearch.com.au/profile/cairns-garden-and-tree-lopping-services/cltnwz8fm006a08k4dasp08tp,170 Martyn St,Parramatta Park,QLD,4870
Miles of Landscaping,0427 68 5307,https://www.localsearch.com.au/profile/miles-of-landscaping/earlville-qld/BhJz,,Earlville,QLD,4870
Sort Ya Veggies Out,0428 68 6585,https://www.localsearch.com.au/profile/sort-ya-veggies-out/clum0gmkb000y08jwh2eaa8z8,16 Mia Street,Kewarra Beach,QLD,4879
Graeme's Lawn and Yard Services,0428 72 9188,https://www.localsearch.com.au/profile/graeme-s-lawn-and-yard-services/gordonvale-qld/w0aX,46 Rushworth Rd,Gordonvale,QLD,4865
Plastic Bits,0428 76 1014,https://www.localsearch.com.au/profile/plastic-bits/cltnvxzie000r09jt7dzhgrs8,9 Ivy Cl,Mooroobool,QLD,4870
Exceptional Landscapes,0429 40 5500,https://www.localsearch.com.au/profile/exceptional-landscapes/holloways-beach-qld/tOqp,,Holloways Beach,QLD,4878
FNQ Mowing & Pressure Washing,0431 17 0400,https://www.localsearch.com.au/profile/fnq-mowing-and-pressure-washing/cllkhn5jg001508l9b9vnbun7,,Trinity Park,QLD,4879
Royalty Lawn and Garden Maintenance,0433 19 4715,https://www.localsearch.com.au/profile/royalty-lawn-and-garden-maintenance/cl7ppz70d003n09i6913771ax,,Redlynch,QLD,4870
Garden Art Landscapes,0434 08 2420,https://www.localsearch.com.au/profile/garden-art-landscapes/bentley-park-qld/vOEY,,Bentley Park,QLD,4869
Scott’s Mowing NQ,0434 33 1739,https://www.localsearch.com.au/profile/scotts-mowing-nq-pty-ltd/cltnwoyrh000v08jx5rz42iw2,22 Cattana Rd,Yorkeys Knob,QLD,4878
Trinity Green Gardenscapes FNQ,0437 30 9441,https://www.localsearch.com.au/profile/trinity-green/redlynch-qld/qdPE,,Redlynch,QLD,4870
Ironman Lawn & Garden Care,0438 27 6243,https://www.localsearch.com.au/profile/ironman-lawn-garden-care-pty-ltd/bentley-park-qld/0Gjy,,Bentley Park,QLD,4869
Richard McLaren Paving & Landscaping,0438 36 6014,https://www.localsearch.com.au/profile/richard-mclaren-paving-landscaping/cairns-qld-4870/sAVX,,Cairns City,QLD,4870
Beat's Yard Maintenance & Landscaping,0438 52 7752,https://www.localsearch.com.au/profile/beat-s-yard-maintenance-landscaping/cairns-qld-4870/r3Oa,,Cairns,QLD,4870
Marlin Coast Garden Bags,0438 55 0615,https://www.localsearch.com.au/profile/marlin-coast-garden-bags/cairns-qld/8w9o,,Smithfield,QLD,4879
Lanina Excavation,0439 70 1513,https://www.localsearch.com.au/profile/laninaexcavation-pty-ltd/clto2g2f700xg08jtc834dxt6,59-61 James Cook Dr,Kewarra Beach,QLD,4879
NuLeaf Mowing,0444 54 1542,https://www.localsearch.com.au/profile/nuleaf-mowing/clwyaak3j000a08ieg9vj6o7u,,Brinsmead,QLD,4870
Mow & Mulch Lawn & Garden Maintenance,0447 04 1115,https://www.localsearch.com.au/profile/mow-mulch-cairns/white-rock-qld-4868/4BKD,,White Rock,QLD,4868
Prodigy Lawns,0447 44 2230,https://www.localsearch.com.au/profile/prodigy-lawns/mossman-qld/k70o,30 Thomas St,Mossman,QLD,4873
Greenleaf Garden Management,0448 74 3101,https://www.localsearch.com.au/profile/greenleaf-garden-management/cltnxlai700dm08l8e9ng1lfc,Shed 5-7 Pioneer Cl,Port Douglas,QLD,4877
James Home Services Lawn & Garden Care - Gordonvale,0448 88 1996,https://www.localsearch.com.au/profile/james-home-services-lawn-garden-care-gordonvale/gordonvale-qld/V4I4,,Gordonvale,QLD,4865
Seia Gardening & Maintenance,0450 08 3925,https://www.localsearch.com.au/profile/seia-gardening-maintenance/aeroglen-qld/GFL2,,Wrights Creek,QLD,4869
GBR Landscaping,0450 51 9738,https://www.localsearch.com.au/profile/gbr-landscaping-pty-ltd/parramatta-park-qld/d3FE,29 Maranoa St,Parramatta Park,QLD,4870
Complete Property Repairs And Maintenance,0458 14 9925,https://www.localsearch.com.au/profile/complete-property-repairs-and-maintenance/clzuurrkn001m08lchq824l7f,,Caravonica,QLD,4878
Emsebs Lawn Care,0458 58 7306,https://www.localsearch.com.au/profile/emsebs-lawn-care/clto2fc9k00sb08i7cpirhtuw,266 Buchan St,Westcourt,QLD,4870
Tanels Lawns & Gardens,0459 23 6930,https://www.localsearch.com.au/profile/tanels-lawns-and-gardens/cllcrq10t000808lh9us07h33,,Lake Barrine,QLD,4884
Claney's Yard Services,0459 29 6364,https://www.localsearch.com.au/profile/claney-s-yard-services/mount-sheridan-qld/Btsj,Barnard Dr,Mount Sheridan,QLD,4868
EJM Mowing and Pressure Cleaning,0459 52 0290,https://www.localsearch.com.au/profile/ejm-mowing-and-pressure-cleaning/cl8xrapr0001909mh3tvt4awh,,Yungaburra,QLD,4884
Elysian Garden and Property Maintenance,0460 87 3353,https://www.localsearch.com.au/profile/elysian-garden-and-property-maintenance/clfhnr8fs000w08mp6ki4fse3,,Trinity Beach,QLD,4879
Cairns Handyman & Automotive Services,0466 69 6293,https://www.localsearch.com.au/profile/cairns-handyman-and-automotive-services/clrzxb578000a08l2hdfp689r,,Edge Hill,QLD,4870
North2South Gardening,0467 05 8151,https://www.localsearch.com.au/profile/north2south-gardening/freshwater-qld/SM7W,,Mount Sheridan,QLD,4868
All Style Paving & Landscaping,0467 59 0781,https://www.localsearch.com.au/profile/all-style-paving-landscaping/trinity-park-qld/zhMt,,Kewarra Beach,QLD,4879
Kennedy Landscaping Solutions,0474 03 5129,https://www.localsearch.com.au/profile/kennedy-landscaping-solutions/clto4e14d010i08l1cgbj5j4n,,Smithfield,QLD,4878
Mowlicious Lawn Mowing,0475 63 2161,https://www.localsearch.com.au/profile/mowlicious-lawn-mowing/clto0467a00dt08lg7tw75t8b,3 Bounty Cl,Bentley Park,QLD,4869
Whichway Lawn Care,0476 02 9419,https://www.localsearch.com.au/profile/whichway-lawn-care/clto19w5n009e08jv9cq84nj7,24 Norman St,Gordonvale,QLD,4865
Trinity Landscapes,0481 11 3793,https://www.localsearch.com.au/profile/trinity-landscape/kewarra-beach-qld/kAuM,Krait st,Trinity Park,QLD,4879
Elite Mowing,0484 20 0048,https://www.localsearch.com.au/profile/elite-mowing/cairns-north-qld/CKxc,,Cairns North,QLD,4870
Taipan Horticultural Services,0488 54 7111,https://www.localsearch.com.au/profile/taipan-horticultural-services/edmonton-qld/1S6I,,Edmonton,QLD,4869
Abundant Earth Lawn & Garden,0490 04 4904,https://www.localsearch.com.au/profile/abundant-earth-cairns-lawn-mowing-professionals/clc1jh2nu000w08msb3pj2m07,,Manunda,QLD,4870
Whitfield Lawnmowing,0491 95 9918,https://www.localsearch.com.au/profile/whitfield-lawnmowing/clkq6bdxz000k08mg3048gd1p,,Whitfield,QLD,4870
Spot On - Total Property Services,0492 92 9389,https://www.localsearch.com.au/profile/spot-on-total-property-services/clto23o4k00w008jpbu78hfiv,112/219-225 McLeod St,Cairns North,QLD,4870
ATD Landscapes Cairns,0497 59 2936,https://www.localsearch.com.au/profile/atd-landscapes-cairns/cairns-north-qld/qXoo,,Cairns North,QLD,4870
FNQ Easy Fix,0497 90 4928,https://www.localsearch.com.au/profile/fnq-easy-fix/clji7yc1y000l08l83o72fkzc,,Edmonton,QLD,4869
Local Dad Lawn & Garden,0498 71 0584,https://www.localsearch.com.au/profile/local-dad-lawn-and-garden/clsmpudcr001t08jvggw3bgi9,,Smithfield,QLD,4878
Reynold’s Local Lawn Services,0499 17 2243,https://www.localsearch.com.au/profile/reynolds-local-lawn-services/clhl4osph000808l6d3bw4cmn,,Bungalow,QLD,4870
Blades Property Maintenance,0499 33 2924,https://www.localsearch.com.au/profile/blades-property-maintenance/trinity-beach-qld/vWT1,Shop 6 1 Rabaul St,Trinity Beach,QLD,4879
NQ Parks and Gardens,0499 74 1499,https://www.localsearch.com.au/profile/nq-parks-and-gardens/cairns-qld-4870/Fg7K,,Cairns,QLD,4870
NQ Parks and Gardens,0499 74 1499,https://www.localsearch.com.au/profile/nq-parks-and-gardens/cla6d44bv000408lbei1f9mvd,,Cairns North,QLD,4870
Fox Mowing & Gardening Cairns,07 3487 1723,https://www.localsearch.com.au/profile/fox-mowing-and-gardening-cairns/clwg75xbb000a08l49la3ce5m,,Manunda,QLD,4870
Green Care Cairns,07 4031 0877,https://www.localsearch.com.au/profile/green-care-cairns/clto4hcpe008b08jr3hve8ntd,11A Sheridan St,Cairns City,QLD,4870
Designer Garden Co,07 4051 5545,https://www.localsearch.com.au/profile/the-designer-garden-company/cairns-north-qld/x8bc,11 Lily St,Cairns North,QLD,4870
Advanced Vegetation Management,07 4055 2516,https://www.localsearch.com.au/profile/advanced-vegetation-management/stratford-qld/UomK,6 Magazine St,Stratford,QLD,4870
Tree Arrangements,07 4058 1873,https://www.localsearch.com.au/profile/tree-arrangements/stratford-qld/us8P,,Stratford,QLD,4870
Green Haven Cairns Landscaping,07 4079 0907,https://www.localsearch.com.au/profile/green-haven-cairns-landscaping/clzwcc762000908lf1ija98aw,Cairns,Cairns,QLD,4870
Allura Landscapes,07 4093 8643,https://www.localsearch.com.au/profile/allura-landscapes/kuranda-qld/dPg8,,Kuranda,QLD,4881
Papillon Landscapes,07 4098 3081,https://www.localsearch.com.au/profile/papillon-landscape/craiglie-qld/2OY9,29 Owen St,Craiglie,QLD,4877
Pure Magic Domestic and Commercial Services,07 4774 3666,https://www.localsearch.com.au/profile/pure-magic-domestic-and-commercial-services/bentley-park-qld/lG24,Resolution Dr,Bentley Park,QLD,4869
1300 4 Gardening,1300 44 2733,https://www.localsearch.com.au/profile/1300-4-gardening/cairns-qld-4870/fiIM,46 Neon St,Sumner,QLD,4074
Scoob's Grass & Garden Care,N/A,https://www.localsearch.com.au/profile/scoob-s-grass-garden-care/cairns-qld-4870/IPQx,,Cairns,QLD,4870
Hire A Hubby,N/A,https://www.localsearch.com.au/profile/hire-a-hubby/brinsmead-qld/gPFT,,Brinsmead,QLD,4870
