name,phone,url,street,suburb,state,postcode
Copeys Plumbing,0401 46 6728,https://www.localsearch.com.au/profile/copeys-plumbing/cltbwducd000k08l6hhcwhold,,Gordonvale,QLD,4865
Smooth Flow Plumbing Cairns Pty Ltd,0403 31 3866,https://www.localsearch.com.au/profile/smooth-flow-plumbing-cairns/cm78o64vb000708lh8e3g34dh,,Cairns City,QLD,4870
Fox Plumbing And Gas Services,0404 31 3797,https://www.localsearch.com.au/profile/fox-plumbing-and-gas-services/cltnype1s00om08l9f1nm1umn,61 Milman Dr,Craiglie,QLD,4877
RVR Plumbing Service,0407 22 3082,https://www.localsearch.com.au/profile/rvr-plumbing-service/clt6mws5p000j08l86gg54vse,,Parramatta Park,QLD,4870
Cairns Leak Detection,0407 47 8364,https://www.localsearch.com.au/profile/cairns-leak-detection/edmonton-qld/JpjN,,Edmonton,QLD,4869
Paul J Buckley Plumbing & Carpentry Service,0407 58 0688,https://www.localsearch.com.au/profile/paul-j-buckley-plumbing-carpentry-services/bayview-heights-qld/D7Y8,,Bayview Heights,QLD,4868
Adrian Fisk Plumbing & Drainage,0407 77 3230,https://www.localsearch.com.au/profile/adrian-fisk-plumbing-and-drainage/cl7mmiddc002w09mf8qk2e0xa,,Cairns,QLD,4870
Marlin Coast Leak Detection,0407 80 2571,https://www.localsearch.com.au/profile/marlin-coast-plumbing/cairns-qld-4870/ZEPZ,,Cairns,QLD,4870
Bayview Plumbers,0408 07 9498,https://www.localsearch.com.au/profile/bayview-plumbers/bayview-heights-qld/bQ9p,2 Amethyst Street,Bayview Heights,QLD,4868
Craig Walker Plumbing,0408 77 4572,https://www.localsearch.com.au/profile/craig-walker-plumbing/kewarra-beach-qld/gSxO,,Kewarra Beach,QLD,4879
PWN Plumbing,0408 84 9185,https://www.localsearch.com.au/profile/pwn-plumbing/cl7mlh7sr007a09mk1s3tawwr,10 102 Hartley St,Bungalow,QLD,4870
Doc's Plumbing & Gasfitting,0408 87 7070,https://www.localsearch.com.au/profile/doc-s-plumbing-maintenance/woree-qld/Ude7,,Woree,QLD,4868
P.W. Davon Plumbing Pty Ltd,0409 52 5487,https://www.localsearch.com.au/profile/p-w-davon-plumbing-pty-ltd/mooroobool-qld/vuTR,,Mooroobool,QLD,4870
FNQ Hot Water,0409 55 9597,https://www.localsearch.com.au/profile/fnq-hot-water/mareeba-qld/aLnz,8 Costin St,Mareeba,QLD,4880
Custys Plumbing Services,0409 72 0249,https://www.localsearch.com.au/profile/custys-plumbing-services/trinity-park-qld/h8q1,23 Napier St,Trinity Park,QLD,4879
LJ's Plumbing And gas,0410 50 4309,https://www.localsearch.com.au/profile/ljs-plumbing-and-gas/cltbwdhro000f08l777ot3131,,Manunda,QLD,4870
Lexon Plumbing,0411 30 6540,https://www.localsearch.com.au/profile/lexon-plumbing/cltbwca8n000a08l4f8kabpnc,13 Jabiru Court,Smithfield,QLD,4878
Chapman Plumbing,0412 14 6342,https://www.localsearch.com.au/profile/chapman-plumbing/kanimbla-qld/fdB3,13 Emperor Street,Kanimbla,QLD,4870
Northwater Plumbing and Drainage,0413 52 9337,https://www.localsearch.com.au/profile/northwater-plumbing-and-drainage/trinity-beach-qld/zYa6,,Trinity Beach,QLD,4879
Darryl Westbury Plumbing,0414 86 9863,https://www.localsearch.com.au/profile/darryl-westbury-plumbing/white-rock-qld-4868/NvGI,,White Rock,QLD,4868
AVS Plumbing And Gas,0415 61 0544,https://www.localsearch.com.au/profile/avs-plumbing-and-gas/cltbwdk7k000k08l1ecgi42ln,9 Howie Cl,Kewarra Beach,QLD,4879
Stop Leak Plumbing Cairns,0416 24 4142,https://www.localsearch.com.au/profile/stop-leak-plumbing-cairns/freshwater-qld/0bhQ,187 Harvey Road,Redlynch,QLD,4870
Phil's Maintenance Plumbers,0417 19 4302,https://www.localsearch.com.au/profile/phil-s-maintenance-plumbers/yorkeys-knob-qld/MZvl,22-24 Wewak Street,Trinity Beach,QLD,4879
Eagle And Stork Mechanical Plumbing,0417 71 3593,https://www.localsearch.com.au/profile/eagle-stork-plumbing-cairns/manunda-qld/ViR2,72 Anderson Street,Manunda,QLD,4870
A Cairns Maintenance,0417 73 7729,https://www.localsearch.com.au/profile/a-cairns-maintenance/edmonton-qld/s8jK,,Mount Sheridan,QLD,4868
Henderson Plumbing,0418 75 3904,https://www.localsearch.com.au/profile/henderson-plumbing/cairns-qld-4870/ndtU,1 Cannon Street,Gordonvale,QLD,4865
Degen Newbery Plumbing & Roofing,0418 77 6387,https://www.localsearch.com.au/profile/degen-newbery-plumbing-draining-roofing/mount-sheridan-qld/yTnk,,Mount Sheridan,QLD,4868
Any Plumbing Maintenance,0418 89 8156,https://www.localsearch.com.au/profile/any-plumbing-maintenance/cairns-qld-4870/rpBU,,Westcourt,QLD,4870
Russell Plumbing,0419 16 1864,https://www.localsearch.com.au/profile/russell-plumbing/manunda-qld/g0eG,,Manunda,QLD,4870
Ross Weber Plumbing,0419 67 6064,https://www.localsearch.com.au/profile/ross-weber-plumbing-pty-ltd/manunda-qld/O9Au,Unit 26/170 Mayers Street,Manunda,QLD,4870
Seymour Plumbing,0420 90 9405,https://www.localsearch.com.au/profile/seymour-plumbing/smithfield-qld/Y7pY,,Smithfield,QLD,4878
Province Plumbing,0421 22 2129,https://www.localsearch.com.au/profile/province-plumbing/clygyljlf002z08l9g86m14so,,Kewarra Beach,QLD,4879
TKD Plumbing Gasfitting & Airconditioning,0421 79 7645,https://www.localsearch.com.au/profile/tkd-plumbing-gasfitting-airconditioning/redlynch-qld/chOI,12 Village Terrace,Redlynch,QLD,4870
Sunny Plumbing,0422 50 8143,https://www.localsearch.com.au/profile/sunny-plumbing/cltbwczl3000a08l97uxw7u6r,17 Hamelin Street,Bentley Park,QLD,4869
Briody Plumbing,0427 78 9255,https://www.localsearch.com.au/profile/briody-plumbing-pty-ltd/redlynch-qld/R9qW,388r Redlynch Intake Rd,Redlynch,QLD,4870
BL Plumbing & Maintenance,0428 18 1337,https://www.localsearch.com.au/profile/bl-plumbing-and-maitenance/cm0c1m9ny001e08l5gs2n221q,,Port Douglas,QLD,4877
Amy Johnson Gas & Plumbing,0428 66 3119,https://www.localsearch.com.au/profile/amy-johnson-gas-plumbing/dorrigo-nsw/967d,,Cairns North,QLD,4870
All About Plumbing & Gas,0428 81 0878,https://www.localsearch.com.au/profile/all-about-plumbing-gas/edmonton-qld/ankw,,Edmonton,QLD,4869
Chris Gas 'N' Pipes,0438 33 5776,https://www.localsearch.com.au/profile/chris-gas-n-pipes/cairns-qld-4870/Y9yC,48 Alberta Drive,Woree,QLD,4868
Mick Jorgo Plumber & Gas Fitter,0438 46 5474,https://www.localsearch.com.au/profile/mick-jorgo-plumber-gas-fitter/smithfield-qld/JVgk,,Brinsmead,QLD,4870
D & B Plumbing NQ,0439 31 9449,https://www.localsearch.com.au/profile/d-b-plumbing-nq/trinity-beach-qld/cYiQ,,Trinity Beach,QLD,4879
Legends Build Group,0439 35 0215,https://www.localsearch.com.au/profile/legends-build-group/cairns-qld-4870/RUNo,,Cairns,QLD,4870
Dunnerite Plumbing,0439 64 3970,https://www.localsearch.com.au/profile/dunne-rite-plumbing/cltbwdmx7000t08l14srmfg2t,8 Annan Bend,Mount Peter,QLD,4869
Mick's A1 Plumbing,0457 58 7355,https://www.localsearch.com.au/profile/mick-s-plumbing-pty-ltd/redlynch-qld/A4vh,,Redlynch,QLD,4870
NBS Plumbing,0466 06 2014,https://www.localsearch.com.au/profile/nbs-plumbing-pty-ltd/cltbwda68000a08kzblqb0fpq,16 Victoria St,Parramatta Park,QLD,4870
Oakland Plumbing,0466 87 1445,https://www.localsearch.com.au/profile/oakland-plumbing/clx89tgpo000l08jvge3m41k5,,Whitfield,QLD,4870
Cairns Plumbing & Property Maintenance,0477 01 1699,https://www.localsearch.com.au/profile/cairns-plumbing-property-maintenance/westcourt-qld/LkHx,,Westcourt,QLD,4870
Python Plumbing,0477 08 1215,https://www.localsearch.com.au/profile/python-plumbing/clmu1chnz001p08jxav6wf3g7,40-42 Mayers St,Manunda,QLD,4870
North Trade Services,0477 20 0088,https://www.localsearch.com.au/profile/north-trade-services/cl7mr9ni7000409l4hv9h149w,,Malanda,QLD,4885
FNQ Plumbing & Gas,0487 91 9698,https://www.localsearch.com.au/profile/fnq-plumbing-and-gas/cltbwdpbx000j08kz5a08e3h7,8 Tristania Street,Holloways Beach,QLD,4878
Mr Cairns,0491 90 1351,https://www.localsearch.com.au/profile/mr-cairns/clxcd9wwo000a08lccxmmf294,,Parramatta Park,QLD,4870
Tonon Plumbing & Gas,0498 77 4737,https://www.localsearch.com.au/profile/tonon-plumbing-gas/white-rock-qld-4868/9Fht,,White Rock,QLD,4868
Cairns Hot Water Systems,0499 10 0590,https://www.localsearch.com.au/profile/cairns-hot-water-systems/mooroobool-qld/RcHG,26 170 Mayers St,Manunda,QLD,4870
Wet Tropics Plumbing,07 4019 7945,https://www.localsearch.com.au/profile/wet-tropics-plumbing/portsmith-qld/rTRx,49 Sturt St,Bungalow,QLD,4870
Ultimate Plumbing & Gas,07 4020 5090,https://www.localsearch.com.au/profile/ultimate-plumbing-gas/redlynch-qld/2Wth,101-109 Harvey Rd,Redlynch,QLD,4870
Plumbnorth,07 4032 3891,https://www.localsearch.com.au/profile/plumbnorth-pty-ltd/cairns-north-qld/AwGH,19 Knight St,Portsmith,QLD,4870
C & M McGahan Plumbing,07 4033 1233,https://www.localsearch.com.au/profile/mcgahan-plumbing/cairns-qld-4870/tbj6,Office 161 Newell St,Cairns,QLD,4870
Acacia Plumbing,07 4033 1888,https://www.localsearch.com.au/profile/acacia-plumbing-solar-gas/bungalow-qld/Fjgv,34 Hannam St,Bungalow,QLD,4870
DNC Plumbing,07 4034 9648,https://www.localsearch.com.au/profile/dnc-plumbing/edmonton-qld/BmK0,9 11 Vickers St,Edmonton,QLD,4869
Reef City Maintenance & Construction,07 4035 4035,https://www.localsearch.com.au/profile/reef-city-maintenance-construction/earlville-qld/LgRV,8 Commercial Pl,Earlville,QLD,4870
Magnum Plumbing Pipe Relining,07 4035 5924,https://www.localsearch.com.au/profile/magnum-plumbing-pipe-relining/bungalow-qld/gpOf,,Bungalow,QLD,4870
Intrust Group,07 4049 2867,https://www.localsearch.com.au/profile/intrust-group/clhdztmwy000808k2eqb3c6t3,Shed 2 55 Cook St,Portsmith,QLD,4870
Paradise Plumbing,07 4053 6554,https://www.localsearch.com.au/profile/paradise-plumbing/manunda-qld/MApc,114 Enmore St,Manunda,QLD,4870
De Rose Plumbing,07 4054 3455,https://www.localsearch.com.au/profile/de-rose-plumbing/bayview-heights-qld/eR3n,4 Cicero Cl,Mooroobool,QLD,4870
Fullerton's Plumbing Manufacture,07 4054 5090,https://www.localsearch.com.au/profile/fullerton-s-plumbing-manufacture/woree-qld/GZKw,13 Salter Cl,Woree,QLD,4868
Coral Sea Plumbing,07 4058 0222,https://www.localsearch.com.au/profile/coral-sea-plumbing/stratford-qld/udTu,3 8 Magazine St,Stratford,QLD,4870
Mackie Plumbing,07 4058 0312,https://www.localsearch.com.au/profile/mackie-plumbing/stratford-qld/xtVe,23 Johnston Street,Stratford,QLD,4870
Rapid Flow Plumbing Cairns,07 4079 0785,https://www.localsearch.com.au/profile/rapid-flow-plumbing-cairns/cm050cbwi000b08k2eeuz5tmj,,Cairns,QLD,4870
Fransen Plumbing,07 4079 5422,https://www.localsearch.com.au/profile/fransen-plumbing/woree-qld/y6oD,,Woree,QLD,4868
Reece Plumbing Port Douglas,07 4213 3010,https://www.localsearch.com.au/profile/reece-plumbing/clto0oah600gc08lbguyh1wqv,41-43 Owen St,Craiglie,QLD,4877
Reece Plumbing Smithfield,07 4252 4110,https://www.localsearch.com.au/profile/reece-plumbing/clto0v2xy002e08jz07qz00oz,6 Mount Finnigan Ct,Smithfield,QLD,4878
Tacoma Plumbing Nth Qld,07 4725 4776,https://www.localsearch.com.au/profile/tacoma-plumbing-north-qld-pty-ltd/stratford-qld/T7wa,12 Industrial Avenue,Stratford,QLD,4870
Alphacool Cairns,1300 32 5742,https://www.localsearch.com.au/profile/alphacool/portsmith-qld/tm1J,71 Aumuller St,Portsmith,QLD,4870
Alphacool Port Douglas,1300 32 5742,https://www.localsearch.com.au/profile/alphacool/craiglie-qld/P5kw,18 20 Owen St,Craiglie,QLD,4877
Wombat Plumbing Services,N/A,https://www.localsearch.com.au/profile/wombat-plumbing-services/cairns-qld-4870/XawZ,2 Warrego St,Parramatta Park,QLD,4870
HPS Contractors,N/A,https://www.localsearch.com.au/profile/hps-contractors/portsmith-qld/i1Zx,30-38 Joan St,Bungalow,QLD,4870
Pisces Plumbing,N/A,https://www.localsearch.com.au/profile/pisces-plumbing/trinity-beach-qld/Cczb,23 Kavieng St,Kewarra Beach,QLD,4879
