name,phone,url,street,suburb,state,postcode
Buddahlicious Cleaning Services,0400 85 6288,https://www.localsearch.com.au/profile/buddahlicious-cleaning-services/cm1txowhu000b08lc0un49y95,8 Lynette St,Woree,QLD,4868
Big Red Carpet Shampooing,0401 39 5735,https://www.localsearch.com.au/profile/big-red/westcourt-qld/fStc,,Westcourt,QLD,4870
The Big Sucker,0401 39 5735,https://www.localsearch.com.au/profile/the-big-sucker/westcourt-qld/RVVh,,Westcourt,QLD,4870
Jens Absolute Cleaning,0401 40 3768,https://www.localsearch.com.au/profile/jens-absolute-cleaning/clb4nn1n1001a08mjgvwt1lcd,,Woree,QLD,4868
Cairns Sparkle Cleaning,0402 11 7970,https://www.localsearch.com.au/profile/cairns-sparkle-cleaning/cltnyo8o200pr08jugebhff5y,1 W Parkridge Dr,Brinsmead,QLD,4870
Cairns Home Organisers,0403 47 4925,https://www.localsearch.com.au/profile/cairns-home-organisers/manunda-qld/SHf4,,Manunda,QLD,4870
ARB Carpet & Cleaning Specialist,0404 09 2605,https://www.localsearch.com.au/profile/arb-carpet-and-cleaning-specialist/cl9rpod8u001q09jkbaoo35h5,,Clifton Beach,QLD,4879
M & M Discount Carpet Cleaning,0407 59 5868,https://www.localsearch.com.au/profile/m-m-discount-carpet-cleaning/edmonton-qld/9sB7,,Edmonton,QLD,4869
South Pacific Cleaning,0407 89 6200,https://www.localsearch.com.au/profile/south-pacific-cleaning/bentley-park-qld/B8GC,,Bentley Park,QLD,4869
Cairns discount cleaners,0408 24 3926,https://www.localsearch.com.au/profile/cairns-discount-cleaners/cltnw7pov006708jrd06957nh,Hardy Rd,Bentley Park,QLD,4869
Pressure Cleaning Queensland,0408 38 2464,https://www.localsearch.com.au/profile/pressure-cleaning-queensland/woree-qld/gf1c,,Woree,QLD,4868
DAH Cleaning Service,0408 40 7697,https://www.localsearch.com.au/profile/dah-cleaning-service/clxbildhd003o08jx4mr97m1n,,Edge Hill,QLD,4870
Seamayd Quality Cleaning Services,0408 77 3769,https://www.localsearch.com.au/profile/seamayd-quality-cleaning-services/cl7mkorgp001k09mkagwhbrhd,,Port Douglas,QLD,4877
Cherry's Cleaning Cairns,0410 03 9484,https://www.localsearch.com.au/profile/cherry-s-cleaning-cairns/cairns-qld-4870/NY9P,,Cairns,QLD,4870
Bond Clean Cairns,0410 53 4623,https://www.localsearch.com.au/profile/bond-clean-cairns/yorkeys-knob-qld/5avi,6 65 Sims Esplanade,Yorkeys Knob,QLD,4878
Able Wolf Cleaning & Maintenance Services,0411 57 1931,https://www.localsearch.com.au/profile/able-wolf-cleaning-maintenance-services/cairns-qld-4870/R0DW,,Cairns,QLD,4870
Healthy Cleaners,0411 87 9720,https://www.localsearch.com.au/profile/healthy-cleaners/malanda-qld/mVfV,,Malanda,QLD,4885
Superior power washing,0411 94 8205,https://www.localsearch.com.au/profile/superior-power-washing/cm6j3us05000208ie1h6f232t,,Mount Sheridan,QLD,4868
Sam's Carpet Steam Cleaners,0412 16 3244,https://www.localsearch.com.au/profile/sam-s-carpet-steam-cleaners/edmonton-qld/EsD2,,Edmonton,QLD,4869
Top Gun Operations,0412 96 6850,https://www.localsearch.com.au/profile/top-gun-operations/cltny1z4c00n608jqhjwu6gd8,72 English St,Manunda,QLD,4870
Cairns Complete Clean,0413 23 5965,https://www.localsearch.com.au/profile/cairns-complete-clean/cairns-qld-4870/B8jN,5 Amphora St,Cairns,QLD,4870
UltraClean Property Services,0413 32 2508,https://www.localsearch.com.au/profile/ultra-clean-property-services/cairns-qld-4870/JEaP,,Cairns,QLD,4870
Slippery When Wet Cleaning Services,0413 47 0228,https://www.localsearch.com.au/profile/slippery-when-wet-cleaning-services/earlville-qld/C6iS,,Earlville,QLD,4870
Kula`s Home Cleaning,0413 72 9557,https://www.localsearch.com.au/profile/kulas-home-cleaning/cltnz71tc000f08lbdwqka37i,Unit 54 Trafalgar Rd,Mount Sheridan,QLD,4868
Jaymak FNQ,0414 06 8857,https://www.localsearch.com.au/profile/jaymak-fnq/cljm7h2hz000g08labc5mgfkn,,Woopen Creek,QLD,4871
All Clear Property Care,0414 75 1711,https://www.localsearch.com.au/profile/all-clear-property-care/kamerunga-qld/QXnP,,Kamerunga,QLD,4870
Swept Away Cleaning,0414 79 4041,https://www.localsearch.com.au/profile/swept-away-cleaning/edmonton-qld/ymK9,,Edmonton,QLD,4869
AGB Cleaning,0417 01 3177,https://www.localsearch.com.au/profile/agb-cleaning/bentley-park-qld/p6vs,16 Bee Cl,Bentley Park,QLD,4869
Amalgamated Hygiene Services,0417 01 3177,https://www.localsearch.com.au/profile/amalgamated-hygiene-services/bentley-park-qld/rCZj,,Bentley Park,QLD,4869
Cairns Pressure Cleaning,0417 71 6874,https://www.localsearch.com.au/profile/cairns-pressure-cleaning/palm-cove-qld/6vyl,,Palm Cove,QLD,4879
Above All Ceiling Cleaning Cairns,0417 72 6468,https://www.localsearch.com.au/profile/above-all-ceiling-cleaning-cairns/smithfield-qld/nMnR,,Smithfield,QLD,4878
Cairns Quality Cleaning,0417 82 9568,https://www.localsearch.com.au/profile/cairns-quality-cleaning/yorkeys-knob-qld/AWdf,79 Sims Esplanade,Yorkeys Knob,QLD,4878
Premium Carpet Cleaning,0418 18 7111,https://www.localsearch.com.au/profile/premium-carpet-cleaning/clsmsjkxz000f08legxgx68pi,3 Napier St,Trinity Park,QLD,4879
Clean and Shine,0418 76 4953,https://www.localsearch.com.au/profile/clean-and-shine/cltnz9wgu00t708jp6rnhb11k,9 Leanne Cl,Cairns City,QLD,4870
UltraBright Cleaning Services,0419 27 5767,https://www.localsearch.com.au/profile/ultrabright-cleaning-maintenance-services/palm-cove-qld/9dvn,,Palm Cove,QLD,4879
Mission Impossible Cleaning,0419 30 4652,https://www.localsearch.com.au/profile/mission-impossible-cleaning-maintenance/cairns-qld-4870/QsYK,,Cairns,QLD,4870
A Mission Im-Possible Cairns,0419 30 4652,https://www.localsearch.com.au/profile/a-mission-im-possible-cairns/cairns-qld-4870/NjoO,,Cairns,QLD,4870
All Seasons Removals,0419 75 0290,https://www.localsearch.com.au/profile/all-seasons-removals/gordonvale-qld/FWpw,74 Griffin St,Gordonvale,QLD,4865
RC Pressure Cleaning Cairns,0419 83 0477,https://www.localsearch.com.au/profile/rc-pressure-cleaning-cairns/clto07dqz006v08l36sy2236j,Unit 49 193 Hartley St,Portsmith,QLD,4870
Flawless Diamond Cleaners,0423 50 2283,https://www.localsearch.com.au/profile/flawless-diamond-cleaners/cairns-qld-4870/2ftK,,Clifton Beach,QLD,4879
FNQ Plan Training Services,0423 76 3712,https://www.localsearch.com.au/profile/fnq-plan-training-services/cldvgsk2p000b08l13scoe8hc,,Earlville,QLD,4870
Cairns Boutique Cleaning,0424 23 3555,https://www.localsearch.com.au/profile/cairns-boutique-cleaning/cairns-qld-4870/EgRr,110 Callum St,Cairns,QLD,4870
Honey Cleaning,0426 71 7774,https://www.localsearch.com.au/profile/honey-cleaning/clv3cqxbp002g08jueo9yeknt,,Cairns,QLD,4879
Airconkleen-FNQ,0428 18 8953,https://www.localsearch.com.au/profile/airconkleen-fnq/earlville-qld/d40M,,Goldsborough,QLD,4865
cleanerz2gofast,0428 55 5583,https://www.localsearch.com.au/profile/cleanerz2gofast/clrse434e000c08l62dywapxx,,Kuranda,QLD,4881
Graeme's Lawn and Yard Services,0428 72 9188,https://www.localsearch.com.au/profile/graeme-s-lawn-and-yard-services/gordonvale-qld/w0aX,46 Rushworth Rd,Gordonvale,QLD,4865
Deluxe Window Cleaning,0431 07 0139,https://www.localsearch.com.au/profile/deluxe-window-cleaning/cm4jp45qp000b08jj3ornbaza,,Cairns,QLD,4877
Cleaning Angel Cairns,0431 48 9083,https://www.localsearch.com.au/profile/cleaning-angel-cairns/clzuydoa6001e08kzez936kju,,Edmonton,QLD,4869
Zac's Bin and Pressure Cleaning,0434 05 2755,https://www.localsearch.com.au/profile/zacs-bin-cleaning-and-pressure-washing-services/clzrkt5de001i08lacq018wxb,,Parramatta Park,QLD,4870
Jetwash Pressure Cleaning,0434 85 1677,https://www.localsearch.com.au/profile/jetwash-pressure-cleaning/redlynch-qld/CO5h,17 Laguna Ave,Redlynch,QLD,4870
Vivid Cleaning Services,0436 31 9270,https://www.localsearch.com.au/profile/vivid-cleaning-services/palm-cove-qld/dDZp,,Palm Cove,QLD,4879
SwiftCleaning,0436 46 2073,https://www.localsearch.com.au/profile/swiftcleaning/smithfield-qld/nEXs,,Smithfield,QLD,4878
Zenaco Carpet Services,0437 32 3141,https://www.localsearch.com.au/profile/zenaco-carpet-cleaning/portsmith-qld/3dXq,,Cairns,QLD,4870
Sacred Hands Cleaning,0437 74 9414,https://www.localsearch.com.au/profile/sacred-hands-cleaning/clzgx2qzn000f08le4f359usw,,Gordonvale,QLD,4865
Cairns Premium Cleaning,0437 91 3254,https://www.localsearch.com.au/profile/cairns-premium-cleaning/cairns-qld-4870/dG6a,,Redlynch,QLD,4870
Heightened Services Cleaning Solutions,0438 76 7602,https://www.localsearch.com.au/profile/heightened-cleaning/clkvvbxym000808mi2r7rfq2y,,Cairns North,QLD,4870
Zenaco Cleaning Services,0438 79 3304,https://www.localsearch.com.au/profile/zenaco-cleaning-services/cairns-qld-4870/0jUw,,CAIRNS,QLD,4870
Tablelands Pressure Wash,0447 22 2259,https://www.localsearch.com.au/profile/tablelands-pressure-wash/clkgtz5em001l08moc542e0b6,,Atherton,QLD,4883
Jim's Cleaning,0447 59 9590,https://www.localsearch.com.au/profile/jim-s-cleaning/trinity-beach-qld/P4rY,Unit 5 91-93 Moore St,Trinity Beach,QLD,4879
We Clean For You,0448 11 4598,https://www.localsearch.com.au/profile/we-clean-for-you/cairns-qld-4870/Vq9X,,Mooroobool,QLD,4870
Soundchoice Steam Clean,0448 12 6385,https://www.localsearch.com.au/profile/soundchoice-steam-clean/cairns-qld-4870/u8aY,129A Lake St,CAIRNS,QLD,4870
Quality Cleaning Fnq,0448 75 8842,https://www.localsearch.com.au/profile/quality-cleaning-fnq/clto1w9xm017v08jrh4d95nhd,13B Wallace St,Manunda,QLD,4870
Leizel's Cleaning,0448 85 6785,https://www.localsearch.com.au/profile/leizel-s-cleaning/woree-qld/GtXI,9 Lyndel Dr,Woree,QLD,4868
Umoja@2 Cleaning Services,0449 60 4862,https://www.localsearch.com.au/profile/umoja2-cleaning-services/clmiqeqbk001u08mj2hbwclbv,,Mount Sheridan,QLD,4868
Redlynch Cleaning Services,0450 37 7424,https://www.localsearch.com.au/profile/redlynch-cleaning-services/redlynch-qld/uUkm,7 Sawyer Entrance,Redlynch,QLD,4870
Maid Organised,0455 03 4631,https://www.localsearch.com.au/profile/maid-organised/clr9wsup1000x08lbcrse2u3l,,White Rock,QLD,4868
MaidOrganised,0455 03 4631,https://www.localsearch.com.au/profile/maidorganised/clrk59vq9000c08lbaw4lfs14,,Bentley Park,QLD,4869
Cairns Vacate Clean,0456 17 0228,https://www.localsearch.com.au/profile/cairns-vacate-clean/smithfield-qld/2Xht,2 116 Anderson St,Manunda,QLD,4870
Damo's Cleaning Services,0456 21 7991,https://www.localsearch.com.au/profile/damo-s-cleaning-services/cairns-qld-4870/e44M,,Cairns,QLD,4870
Greener Solar Cleaner,0456 89 5446,https://www.localsearch.com.au/profile/greener-solar-cleaner/cairns-qld-4870/an5N,,Cairns,QLD,4870
JFP Mobile Abrasive Blasting,0457 35 0312,https://www.localsearch.com.au/profile/jfp-mobile-abrasive-blasting/cairns-qld-4870/jWev,,CAIRNS,QLD,4870
Southside Angels,0457 38 0853,https://www.localsearch.com.au/profile/southside-angels/edmonton-qld/wq4S,,Edmonton,QLD,4869
Alvins Bond Back Cleaning,0457 68 3926,https://www.localsearch.com.au/profile/alvins-bond-back-cleaning/mount-sheridan-qld/NFmX,116 Verbena Drv,Mount Sheridan,QLD,4868
EJM Mowing and Pressure Cleaning,0459 52 0290,https://www.localsearch.com.au/profile/ejm-mowing-and-pressure-cleaning/cl8xrapr0001909mh3tvt4awh,,Yungaburra,QLD,4884
Cairns Floor Cleaning,0460 88 9791,https://www.localsearch.com.au/profile/cairns-floor-cleaning/brinsmead-qld/Qopq,,Brinsmead,QLD,4870
Harvey Cleaning Solutions,0467 03 4210,https://www.localsearch.com.au/profile/harvey-cleaning-solutions/smithfield-qld/1MDY,,Smithfield,QLD,4878
Tidy-Up Cairns,0468 61 6835,https://www.localsearch.com.au/profile/tidy-up-cairns/cltnx3856007l08lea0ur7xn1,128 55-57 Clifton Rd,Clifton Beach,QLD,4879
AAA Blasters,0468 72 5278,https://www.localsearch.com.au/profile/aaa-blasters/woree-qld/vxpO,,Bentley Park,QLD,4869
Pacific Pure,0473 11 2136,https://www.localsearch.com.au/profile/pacific-pure/cltny4zqm005z08jlffmy874e,Eiic Building 91 Mulgrave Rd,Cairns City,QLD,4870
Kristy's House Cleaning Service Cairns,0477 08 2448,https://www.localsearch.com.au/profile/kristys-house-cleaning-service-cairns/clto0lrrg00xz08jv9rum7gku,Cairns,Manoora,QLD,4870
Simply Cleaned - Cleaning Services,0477 62 4807,https://www.localsearch.com.au/profile/simply-cleaned-cleaning-services/kuranda-qld/aDnU,,Kuranda,QLD,4881
Image Cleaning Corp,0478 75 4335,https://www.localsearch.com.au/profile/image-cleaning-corp/cltnxw9yn001f09lg1u398627,Unit 12 136 Aumuller St,Bungalow,QLD,4870
Aqua Force Cairns Pressure Washing,0479 01 8568,https://www.localsearch.com.au/profile/aqua-force/clt87uugv000a08la0t4e5chs,,Mooroobool,QLD,4870
Cairns Property Services,0480 18 8557,https://www.localsearch.com.au/profile/cairns-property-services/cairns-city-qld/adrV,31 129A Lake St,Cairns City,QLD,4870
MST cleaning services,0480 38 5294,https://www.localsearch.com.au/profile/mst-cleaning-services/cltnygrr300cs08jy5ccs63pi,439 Severin St,Manunda,QLD,4870
Deep Cleans,0484 77 1430,https://www.localsearch.com.au/profile/deep-cleans/cm5tq7yk4000108mg9cp4ek8o,,Woree,QLD,4878
Aquaman Pressure Washing,0485 90 0256,https://www.localsearch.com.au/profile/aquaman-pressure-washing/clvz2pfdn000k08ml00h691s3,,Kanimbla,QLD,4870
Cairns Wheelie Bin Cleaners,0487 23 2806,https://www.localsearch.com.au/profile/cairns-wheelie-bin-cleaners/redlynch-qld/A5xH,7 Lobelia Ct,Redlynch,QLD,4870
High Profile Cleaning,0487 45 6177,https://www.localsearch.com.au/profile/high-profile-cleaning/kewarra-beach-qld/IUmv,1 Baddely Cl,Kewarra Beach,QLD,4879
Clean Cons Cairns,0490 42 4479,https://www.localsearch.com.au/profile/clean-cons-cairns/cltmf1eg6000s08l7b6yc64z4,,Yorkeys Knob,QLD,4878
Super Home Cleaning Services,0491 81 3214,https://www.localsearch.com.au/profile/super-home-cleaning-services/cm14f8f8b002508l29tg5dm13,19b 117-121 Anderson St,Manunda,QLD,4870
Spot On - Total Property Services,0492 92 9389,https://www.localsearch.com.au/profile/spot-on-total-property-services/clto23o4k00w008jpbu78hfiv,112/219-225 McLeod St,Cairns North,QLD,4870
FNQ Cleaning Services,0493 81 8316,https://www.localsearch.com.au/profile/fnq-professional-cleaning-services/cltnylit400e808jye4m3bafy,,Mooroobool,QLD,4870
Timâ€™s Pressure Cleaning,0499 42 9471,https://www.localsearch.com.au/profile/tims-pressure-cleaning/clto1cuj900k108l9f0bq3fj8,,Whitfield,QLD,4870
Leading Pressure Washing,0499 43 6420,https://www.localsearch.com.au/profile/leading-pressure-washing/clooxt9nh000a08l03sx408vo,14 Redden Street,Portsmith,QLD,4870
High Pressure Cleaning Cairns,07 4019 6749,https://www.localsearch.com.au/profile/high-pressure-cleaning-cairns/cairns-qld-4870/mR6M,,CAIRNS,QLD,4870
IMAC Cleaning,07 4032 0017,https://www.localsearch.com.au/profile/imac-cleaning/portsmith-qld/wLzy,,Portsmith,QLD,4870
Grace Group Cairns,07 4035 1799,https://www.localsearch.com.au/profile/grace-group-cairns/clptllrkc002h08l9cmxe2r46,11 Toohey St,Portsmith,QLD,4870
MDSR Group,07 4039 0932,https://www.localsearch.com.au/profile/mdsr-group/redlynch-qld/BcM5,5 59 Anderson St,Manunda,QLD,4870
Safe Clean Services Cairns Pty Ltd,07 4039 1100,https://www.localsearch.com.au/profile/safe-clean-services-cairns/smithfield-qld/Lu95,,Smithfield,QLD,4878
Abelia Cleaning,07 4044 2999,https://www.localsearch.com.au/profile/abelia-cleaning/bungalow-qld/mNw5,Unit 2 3 Cava Cl,Bungalow,QLD,4870
Chem Safe Services,07 4054 2333,https://www.localsearch.com.au/profile/chem-safe-services/gordonvale-qld/ssXe,193 Crossland Rd,Gordonvale,QLD,4865
Cairns Cleaning Contractors,07 4054 4511,https://www.localsearch.com.au/profile/cairns-cleaning-contractors/cairns-qld-4870/nQaW,Shop 1 49 Cook St,Portsmith,QLD,4870
Allamanda Carpet Cleaning and Restorations,07 4056 2300,https://www.localsearch.com.au/profile/allamanda-carpet-cleaning/yorkeys-knob-qld/HUiG,12 Nancy St,Yorkeys Knob,QLD,4878
Cairns Cleaning Corp,07 4081 0000,https://www.localsearch.com.au/profile/cairns-cleaning-corp/cairns-qld-4870/j9rS,,Westcourt,QLD,4870
Cleaning Cairns Pro,07 4082 7680,https://www.localsearch.com.au/profile/cleaning-cairns/clqtg8k8o000a09l55lpr3mwm,,Cairns North,QLD,4870
Ozone Services Australia,07 4231 9778,https://www.localsearch.com.au/profile/ozone-services-australia-pty-ltd/cairns-qld-4870/D55h,1b 84 Aumuller St,Cairns,QLD,4870
Steamatic Cairns,07 4728 1580,https://www.localsearch.com.au/profile/steamatic-cairns/manunda-qld/73wV,9 149 English St,Manunda,QLD,4870
Peter & Paul's Carpet Cleaning,1300 00 4046,https://www.localsearch.com.au/profile/peter-paul-s-pest-control/cairns-qld-4870/kP6V,,Cairns,QLD,4870
Wow Clean Cairns,1300 96 9253,https://www.localsearch.com.au/profile/wow-clean-cairns/bayview-heights-qld/1lOB,46 Fairview St,Bayview Heights,QLD,4868
Corporate Cleaning Services,1800 03 2032,https://www.localsearch.com.au/profile/corporate-cleaning-services/cairns-qld-4870/e0EK,,Cairns,QLD,4870
Maid2Match House Cleaning Cairns,1800 20 7686,https://www.localsearch.com.au/profile/maid2match-house-cleaning-cairns/edge-hill-qld/k3xf,,Edge Hill,QLD,4870
Hygienik,1800 54 5548,https://www.localsearch.com.au/profile/hygienik/smithfield-qld/SzPT,2 Jarda St,Smithfield,QLD,4878
TJ's Cleaning Services Cairns,1800 85 7737,https://www.localsearch.com.au/profile/tj-s-cleaning-services-cairns/cairns-qld-4870/EXjb,10 Satellite St,Cairns,QLD,4870
Sadie's Clean & Shine,N/A,https://www.localsearch.com.au/profile/sadie-s-clean-shine/cairns-qld-4870/5INM,,Cairns,QLD,4870
Sue's Cleaning Services,N/A,https://www.localsearch.com.au/profile/sue-s-cleaning-services/cairns-qld-4870/uX7L,,Cairns,QLD,4870
