name,phone,url,street,suburb,state,postcode
Richardson Building Contractors,0400 31 9663,https://www.localsearch.com.au/profile/rbc-richardson-building-contractors/proserpine-qld/bwGv,6 Kentia St,Palm Cove,QLD,4879
Boycey's Complete Carpentry,0400 65 9225,https://www.localsearch.com.au/profile/boyceys-complete-carpentry/cl7ziaojd002i0aida8ioekb4,,Edmonton,QLD,4869
SDC Group,0400 79 3621,https://www.localsearch.com.au/profile/sdc-group/clj6lflkq001s08jq51db9vmr,66 Dalton Street,Bungalow,QLD,4870
A Concrete Edge,0400 79 6704,https://www.localsearch.com.au/profile/a-concrete-edge/cairns-qld/WM1m,,Woopen Creek,QLD,4871
Mick's Carpentry & Maintenance,0401 72 4089,https://www.localsearch.com.au/profile/mick-s-carpentry-maintenance/machans-beach-qld/vesX,,Machans Beach,QLD,4878
Handy Manny,0402 02 8623,https://www.localsearch.com.au/profile/handy-manny/trinity-beach-qld/HYW5,,Trinity Beach,QLD,4879
NQ Garden Maintenance,0403 29 6704,https://www.localsearch.com.au/profile/nq-garden-maintenance/clk0z6b5f000d08l8e8r75zm6,,Edmonton,QLD,4869
Scott Boughton Concreting,0403 53 0091,https://www.localsearch.com.au/profile/scott-boughton-concreting/kewarra-beach-qld/EfXc,1 Carrum Cl,Kewarra Beach,QLD,4879
All Pave Services,0404 86 4852,https://www.localsearch.com.au/profile/all-pave-services/clto4gcu3003308l40m7bbk2m,69 Moore Rd,Kewarra Beach,QLD,4879
A & T Concreting North QLD (NQ),0405 56 9676,https://www.localsearch.com.au/profile/a-t-concreting/cairns-qld-4870/wPav,,Clifton Beach,QLD,4879
DK Masonry Construction,0407 60 5365,https://www.localsearch.com.au/profile/dk-masonry-construction/kewarra-beach-qld/Cfo7,54 Moore Rd,Kewarra Beach,QLD,4879
Cairns Concrete Contractors,0407 67 0688,https://www.localsearch.com.au/profile/cairns-concrete-contractors/coconuts-qld/tCzA,8 Fern Ave,Coconuts,QLD,4860
B & C Donnachie Concrete Contractors,0408 18 7995,https://www.localsearch.com.au/profile/b-c-donnachie-concrete-contractors/kuranda-qld/OVNg,,Kuranda,QLD,4881
B&C Donnachie,0408 18 7995,https://www.localsearch.com.au/profile/b-c-donnachie/kuranda-qld/X6tK,6 Butler Dr,Kuranda,QLD,4881
Win Concrete Pumping,0408 45 6334,https://www.localsearch.com.au/profile/win-concrete-pumping/mirriwinni-qld/fTjK,,MIRRIWINNI,QLD,4871
Core Concrete,0408 49 3424,https://www.localsearch.com.au/profile/core-concrete-pty-ltd/cairns-qld-4870/j6iw,42 Kambara St,Cairns,QLD,4870
Jay Campbell Carpentry Cairns,0408 76 0158,https://www.localsearch.com.au/profile/jay-campbell-carpentry-cairns/cltnzsz6c005k08jx9tz1gkjs,25 Martyn St,Parramatta Park,QLD,4870
All Property Services FNQ,0409 45 7184,https://www.localsearch.com.au/profile/all-property-services-fnq/kewarra-beach-qld/mweY,5 Portsea Cres,Kewarra Beach,QLD,4879
Kerbing N.Q,0415 36 4497,https://www.localsearch.com.au/profile/kerbing-nq/clto05qw6004c08jr62wx2y81,7 Ridley Cl,Edmonton,QLD,4869
LJ Constructions,0417 00 4275,https://www.localsearch.com.au/profile/lj-construction/redlynch-qld/NGLU,,Redlynch,QLD,4870
Liquid Tile Cairns,0417 64 9117,https://www.localsearch.com.au/profile/liquid-tile-cairns/clifton-beach-qld/mX4L,38-42 Alexandra St,Clifton Beach,QLD,4879
Bissell Concreting,0417 78 2198,https://www.localsearch.com.au/profile/bissell-concreting/yorkeys-knob-qld/zZ45,7 Samuel St,Yorkeys Knob,QLD,4878
Sariascape,0417 79 7554,https://www.localsearch.com.au/profile/sariascape-retaining-walls-paving/palm-cove-qld/gP9X,,Palm Cove,QLD,4879
Accu-Cut,0418 18 3027,https://www.localsearch.com.au/profile/accu-cut/edmonton-qld/nVNW,Unit 40 170-182 Mayers St,Manunda,QLD,4870
G R Colwell Concreting,0418 18 3068,https://www.localsearch.com.au/profile/g-r-colwell-concreting/holloways-beach-qld/Ztqo,,Holloways Beach,QLD,4878
Dreamscape Landscaping & Paving,0418 26 1449,https://www.localsearch.com.au/profile/dreamscape-landscaping-paving/kewarra-beach-qld/0nHU,,Kewarra Beach,QLD,4879
1st Choice Property Maintenance,0418 37 1282,https://www.localsearch.com.au/profile/1st-choice-property-maintenance/cltnwmtum004o08l577cv64tx,,Edmonton,QLD,4869
Bitumen Patch & Pave,0418 45 8630,https://www.localsearch.com.au/profile/bitumen-patch-pave/bungalow-qld/bm0o,240-244 Scott St,Bungalow,QLD,4870
Horizon Concreting,0418 94 8204,https://www.localsearch.com.au/profile/horizon-concreting/yungaburra-qld/GVx7,,Yungaburra,QLD,4884
Tablelands Concrete Pty Ltd,0419 23 8455,https://www.localsearch.com.au/profile/tablelands-concrete-pty-ltd/malanda-qld/6WsV,,Malanda,QLD,4885
Liam Gilligan Builders,0419 67 7413,https://www.localsearch.com.au/profile/liam-gilligan-builders/westcourt-qld/zLKO,,Westcourt,QLD,4870
Justmill Carpentry & Building,0419 71 5863,https://www.localsearch.com.au/profile/justmill-carpentry-building/smithfield-qld/d5EK,,Smithfield,QLD,4878
Cox Concreting,0419 77 3119,https://www.localsearch.com.au/profile/cox-concreting/deeral-qld/579X,,Deeral,QLD,4871
HOB Constructions,0422 08 3655,https://www.localsearch.com.au/profile/hob-constructions/clogxoyc6000808jj4os6he7o,61 63 Catalano Access Rd,Goldsborough,QLD,4865
Kwik Kerb Cairns,0427 96 8127,https://www.localsearch.com.au/profile/kwik-kerb-cairns/gordonvale-qld/Q3rZ,,Gordonvale,QLD,4865
Ison Building,0428 88 5126,https://www.localsearch.com.au/profile/ison-building/mount-sheridan-qld/H3cw,,Manunda,QLD,4868
Wongabel Concrete,0428 97 6762,https://www.localsearch.com.au/profile/wongabel-concrete/wongabel-qld/U618,458 Wongabel Rd,Wongabel,QLD,4883
RC Maintenance,0429 36 3731,https://www.localsearch.com.au/profile/rc-maintenance/mount-sheridan-qld/LuAw,,Mount Sheridan,QLD,4868
Makcon Concrete,0432 73 3107,https://www.localsearch.com.au/profile/makcon-concrete/clf25yhqd004308mhaxo60fih,Marlin Drive,Wonga,QLD,4873
Mulgrave Structural,0438 00 1525,https://www.localsearch.com.au/profile/mulgrave-structural/gordonvale-qld/2G0n,97 Riverstone Rd,Gordonvale,QLD,4865
Pro Cut N Core,0438 82 9218,https://www.localsearch.com.au/profile/pro-cut-n-core/manunda-qld/i5If,,Manunda,QLD,4870
Legends Build Group,0439 35 0215,https://www.localsearch.com.au/profile/legends-build-group/cairns-qld-4870/RUNo,,Cairns,QLD,4870
Ultimate Concrete Constructions,0439 55 2803,https://www.localsearch.com.au/profile/ultimate-concrete-constructions/cairns-qld-4870/7uAz,,Cairns,QLD,4870
Cairns City Formwork,0439 61 0773,https://www.localsearch.com.au/profile/cairns-city-formwork/mount-sheridan-qld/Nmiu,,Mount Sheridan,QLD,4868
The Concreters,0439 70 7587,https://www.localsearch.com.au/profile/the-concreters/edmonton-qld/5Sld,10 Ridley Cl,Edmonton,QLD,4869
Tropical North Concreting,0439 77 2399,https://www.localsearch.com.au/profile/tropical-north-concreting/trinity-park-qld/SHdM,,Trinity Park,QLD,4879
McIntosh Builders Pty Ltd,0447 51 2898,https://www.localsearch.com.au/profile/mcintosh-builders-pty-ltd/manoora-qld/CmWc,72 Reservoir Rd,Manoora,QLD,4870
Concrete Spraying Services,0448 77 3342,https://www.localsearch.com.au/profile/concrete-spraying-services/redlynch-qld/xj2d,40 McBride St,Redlynch,QLD,4870
Envision Projects,0458 99 3018,https://www.localsearch.com.au/profile/envision-projects/cairns-qld-4870/uDXY,,Cairns,QLD,4870
Value Concreting,0466 33 3935,https://www.localsearch.com.au/profile/value-concreting/clzfecy0w000a08jr0jfcbnrv,,East Innisfail,QLD,4860
All Style Paving & Landscaping,0467 59 0781,https://www.localsearch.com.au/profile/all-style-paving-landscaping/trinity-park-qld/zhMt,,Kewarra Beach,QLD,4879
Cairns Concrete Coatings,0467 70 5405,https://www.localsearch.com.au/profile/cairns-concrete-coatings/yorkeys-knob-qld/eMLB,371-373 Varley St,Yorkeys Knob,QLD,4878
Cairnscrete Pumping,0488 78 6746,https://www.localsearch.com.au/profile/cairnscrete-pumping/bungalow-qld/B2qt,5 Cava Cl,Earlville,QLD,4870
Stone Rose Structural Landscaping,0499 49 2965,https://www.localsearch.com.au/profile/stone-rose-structural-landscaping/clclkx040000a08meeiok30ec,,Kewarra Beach,QLD,4879
Crest Concreting,0499 58 1561,https://www.localsearch.com.au/profile/crest-concreting/clxqp0756000a08l07g82hfou,,Malanda,QLD,4885
MB Construction QLD Pty Ltd,07 4031 0869,https://www.localsearch.com.au/profile/mb-construction-qld-pty-ltd/bungalow-qld/6YzV,8 Doyle St,BUNGALOW,QLD,4870
GDA Constructions Pty Ltd,07 4035 6353,https://www.localsearch.com.au/profile/gda-constructions-pty-ltd/bungalow-qld/kLo1,64 Morehead St,Bungalow,QLD,4870
Semrau Constructions,07 4045 3711,https://www.localsearch.com.au/profile/semrau-constructions-pty-ltd/bentley-park-qld/7CZp,23 Barcoo Cl,Bentley Park,QLD,4869
NQ Civil,07 4056 1572,https://www.localsearch.com.au/profile/nq-civil/clto0rn4k005508l479zp762k,5 Templeton St,Gordonvale,QLD,4865
WIP Construction Stratford,07 4058 0221,https://www.localsearch.com.au/profile/wip-construction/stratford-qld/Eu8O,24 Magazine Street,Stratford,QLD,4870
Cairns Carpenters,07 4079 0759,https://www.localsearch.com.au/profile/cairns-carpenters/clzqves1m003u08l9fb5lhttv,,Cairns City,QLD,4870
Higham Building Group,07 4095 8597,https://www.localsearch.com.au/profile/higham-building-group/atherton-qld/F2Jk,,Kairi,QLD,4872
Beck Building,07 4231 9634,https://www.localsearch.com.au/profile/beck-building/smithfield-qld/lTHh,3 8 Maisel Cl,Smithfield,QLD,4878
Concrete Cairns,07 4429 3792,https://www.localsearch.com.au/profile/concrete-cairns/clmqlarko000808ld2eshhhuz,7 Hill St,Manunda,QLD,4870
CIVFORM,N/A,https://www.localsearch.com.au/profile/civform/edmonton-qld/0rOL,64 Swallow Rd,Edmonton,QLD,4869
Pro Form Concrete,N/A,https://www.localsearch.com.au/profile/pro-form-concrete/palm-cove-qld/Lv6z,6 Everglades St,Palm Cove,QLD,4879
