name,phone,url,street,suburb,state,postcode
Tull's Tree & Garden Service,0400 41 4228,https://www.localsearch.com.au/profile/tull-s-tree-garden-service/cairns-qld-4870/PkPP,,Cairns,QLD,4870
T & T Scaffolding,0400 55 3974,https://www.localsearch.com.au/profile/t-and-t-scaffolding/cllg8kfl9000s08k10lzx1e1q,207 Maitland Rd,Gordonvale,QLD,4865
A Concrete Edge,0400 79 6704,https://www.localsearch.com.au/profile/a-concrete-edge/cairns-qld/WM1m,,Woopen Creek,QLD,4871
DWC Tiling Services,0400 91 2949,https://www.localsearch.com.au/profile/dwc-tiling-services/brinsmead-qld/TuB0,,Brinsmead,QLD,4870
Cabinet Design Solutions,0402 55 8375,https://www.localsearch.com.au/profile/cabinet-design-solutions/edmonton-qld/tZ5O,29 Vickers St,Edmonton,QLD,4869
Brown Brothers Electrical,0402 57 9479,https://www.localsearch.com.au/profile/brown-brothers-electrical/cairns-qld-4870/73X9,,Gordonvale,QLD,4865
Steffi's Upholstery,0403 52 2673,https://www.localsearch.com.au/profile/steffi-s-upholstery/babinda-qld/ql5v,23 Munro St,Babinda,QLD,4861
Scott Boughton Concreting,0403 53 0091,https://www.localsearch.com.au/profile/scott-boughton-concreting/kewarra-beach-qld/EfXc,1 Carrum Cl,Kewarra Beach,QLD,4879
Touchstone Tiling Services NQ,0404 34 8052,https://www.localsearch.com.au/profile/touchstone-tiling-services-nq-pty-ltd/cairns-qld-4870/GDiM,1 Bena St,Cairns,QLD,4870
RGM Constructions,0407 14 8878,https://www.localsearch.com.au/profile/rgm-constructions/yorkeys-knob-qld/a2fo,12/455 Varley St,Yorkeys Knob,QLD,4878
Tropical Skips Cairns,0407 16 7776,https://www.localsearch.com.au/profile/tropical-skip-bins/freshwater-qld/4nDl,76 Lower Freshwater Rd,Kamerunga,QLD,4870
Posh Lifestyle,0407 24 2545,https://www.localsearch.com.au/profile/posh-lifestyle/smithfield-qld/sox5,,Caravonica,QLD,4878
M & M Discount Carpet Cleaning,0407 59 5868,https://www.localsearch.com.au/profile/m-m-discount-carpet-cleaning/edmonton-qld/9sB7,,Edmonton,QLD,4869
Mobile Welding,0407 67 9930,https://www.localsearch.com.au/profile/mobile-welding/cairns-qld-4870/c5B1,,CAIRNS,QLD,4870
Cairns discount cleaners,0408 24 3926,https://www.localsearch.com.au/profile/cairns-discount-cleaners/cltnw7pov006708jrd06957nh,Hardy Rd,Bentley Park,QLD,4869
Cairns Cool Power,0408 75 0272,https://www.localsearch.com.au/profile/cairns-cool-power/bayview-heights-qld/6SIU,,Bayview Heights,QLD,4868
Crossy's Crane Hire,0408 77 2035,https://www.localsearch.com.au/profile/crossy-s-crane-hire/aeroglen-qld/n6LU,59 Greenbank Rd,Aeroglen,QLD,4870
Super Global Services,0409 01 3474,https://www.localsearch.com.au/profile/super-global-services/cairns-qld-4870/NEhn,Shed 20 4-16 Tingira St,Cairns,QLD,4870
Insulation & Lagging Solutions,0409 07 6902,https://www.localsearch.com.au/profile/insulation-lagging-solutions/woree-qld/2avA,,Woree,QLD,4868
Boscon Constructions,0409 38 3596,https://www.localsearch.com.au/profile/boscon-constructions/cairns-city-qld/O8QM,57 Scott St,Cairns City,QLD,4870
Cairns Window Cleaning,0410 11 2035,https://www.localsearch.com.au/profile/cairns-window-cleaning/cairns-qld-4870/N7Yl,,Cairns,QLD,4870
Oz Reef Connections,0410 55 9788,https://www.localsearch.com.au/profile/oz-reef-connections/manunda-qld/kgzk,Cnr West & Douglas Sts,Manunda,QLD,4870
PowerWurx NQ,0411 64 8831,https://www.localsearch.com.au/profile/powerwurx-nq/woree-qld/wGbb,76 Sunbird Dr,Woree,QLD,4868
Port Stainless,0412 45 5896,https://www.localsearch.com.au/profile/port-stainless/clto3edeb00e609jn02jz560s,Shed 2/5-7 Pioneer Cl,Craiglie,QLD,4877
New Life Vinyl and Leather Service,0412 97 4143,https://www.localsearch.com.au/profile/new-life-vinyl-and-leather-service/cltnxzh2n00hs08l868i0ehwh,33 193 Hartley St,Cairns City,QLD,4870
CJM EARTHWORKS,0414 41 8846,https://www.localsearch.com.au/profile/cjm-earthworks/bungalow-qld/8ETK,43 Sturt St,Bungalow,QLD,4870
Dominic's Mobile Sharpening,0414 77 0169,https://www.localsearch.com.au/profile/dominics-mobile-sharpening/cltnzd23m00xs08judom98577,Lot 1 12 Moowooga St,Earlville,QLD,4870
Auswide Blast Cleaning and Mechanical Services,0416 09 7829,https://www.localsearch.com.au/profile/auswide-blast-cleaning-and-mechanical-services/yorkeys-knob-qld/D7sF,,Yorkeys Knob,QLD,4878
LG Utilities Cleaning Services,0416 22 0414,https://www.localsearch.com.au/profile/lg-utilities-cleaning-services/cairns-qld-4870/9w7W,,Cairns,QLD,4870
MIS Ship Design,0416 57 6997,https://www.localsearch.com.au/profile/mis-ship-design/manoora-qld/VJ1J,3 Quetta Cl,Manoora,QLD,4870
Cleaner Cairns,0417 30 5050,https://www.localsearch.com.au/profile/cleaner-cairns/cairns-qld-4870/X37H,,Cairns,QLD,4870
Coral Sea Coaches,0417 64 2943,https://www.localsearch.com.au/profile/coral-sea-coaches/cairns-qld-4870/RXtp,68 Abbott St,Cairns,QLD,4870
Cairns Electrical and Data Services,0417 75 8232,https://www.localsearch.com.au/profile/cairns-electrical-and-data-services/clg0fw827001208l8arwz7tbg,450 Sheridan St,Cairns North,QLD,4870
Sariascape,0417 79 7554,https://www.localsearch.com.au/profile/sariascape-retaining-walls-paving/palm-cove-qld/gP9X,,Palm Cove,QLD,4879
Steve Beale Painting,0417 79 9871,https://www.localsearch.com.au/profile/steve-beale-painting/trinity-park-qld/nWAm,Trinity Park,Trinity Park,QLD,4879
Cahill’s Lawn Services,0418 14 8366,https://www.localsearch.com.au/profile/cahill-s-garden-services/bayview-heights-qld/39ZY,,Bayview Heights,QLD,4868
Dreamscape Landscaping & Paving,0418 26 1449,https://www.localsearch.com.au/profile/dreamscape-landscaping-paving/kewarra-beach-qld/0nHU,,Kewarra Beach,QLD,4879
Eldred Waterproofing,0418 26 7240,https://www.localsearch.com.au/profile/eldred-waterproofing/whitfield-qld/IlJr,,Whitfield,QLD,4870
Nash Truck & Machinery Hire,0418 78 6949,https://www.localsearch.com.au/profile/nash-truck-machinery-hire/kuranda-qld/ZeXf,,Kuranda,QLD,4881
Solartec Electrical,0418 80 5695,https://www.localsearch.com.au/profile/solartec-electrical/cairns-qld-4870/9ens,,Kanimbla,QLD,4870
Horizon Concreting,0418 94 8204,https://www.localsearch.com.au/profile/horizon-concreting/yungaburra-qld/GVx7,,Yungaburra,QLD,4884
Razorback Electrics,0418 99 0481,https://www.localsearch.com.au/profile/razorback-electrics/smithfield-qld/Bs8E,,Smithfield,QLD,4878
Express City Couriers,0419 03 7217,https://www.localsearch.com.au/profile/express-city-couriers/bungalow-qld/j4Rj,13 Franzmann St,Bungalow,QLD,4870
Crossweld Fabrications,0419 56 1121,https://www.localsearch.com.au/profile/crossweld-fabrications/bungalow-qld/zI81,151 Brown St,Bungalow,QLD,4870
X-Tiles,0420 48 0842,https://www.localsearch.com.au/profile/x-tiles/manunda-qld/Vl0L,13 Melaleuca St,Manunda,QLD,4870
All Light & Power,0421 05 9959,https://www.localsearch.com.au/profile/all-light-power/bentley-park-qld/hrKj,15 Ascendant Cl,Bentley Park,QLD,4869
Walters Painting Services,0421 17 6776,https://www.localsearch.com.au/profile/walters-painting-services-cairns/clfnnzluq000808mg1ghg7pl3,,White Rock,QLD,4306
CMT Constructions FNQ,0422 16 3484,https://www.localsearch.com.au/profile/cmt-constructions-fnq/earlville-qld/WfBt,,Earlville,QLD,4870
Ge Painting Service,0422 51 2240,https://www.localsearch.com.au/profile/ge-painting-service/clto3w6wa00by08ku21if9pf0,31 Howe St,Cairns North,QLD,4870
Kye Chapple Pest Control,0423 24 9913,https://www.localsearch.com.au/profile/kye-chapple-pest-control/clto2oizq016f08l99yf99dt7,39 Endeavour St,Port Douglas,QLD,4877
Ample Electrical,0424 18 6550,https://www.localsearch.com.au/profile/ample-electrical/cairns-qld-4870/Hzxt,,Redlynch,QLD,4870
Hendo's TV Antennas & Installations,0427 30 9993,https://www.localsearch.com.au/profile/hendo-s-tv-antennas-installations/white-rock-qld-4868/QcqX,,White Rock,QLD,4868
RPS–Remote Painting Services,0427 69 1993,https://www.localsearch.com.au/profile/rps-remote-painting-services-pty-ltd/bentley-park-qld/PR0d,,White Rock,QLD,4868
Certus Electrical,0427 98 1769,https://www.localsearch.com.au/profile/certus-electrical/cairns-qld-4870/uB2C,,Cairns City,QLD,4870
Cairns Clear Water Company,0428 26 2737,https://www.localsearch.com.au/profile/cairns-clear-water-company/westcourt-qld/sKkc,,Westcourt,QLD,4870
Wilkomotive Mechanical,0428 83 5440,https://www.localsearch.com.au/profile/wilkomotive-mechanical/cli0yqycw000o09l8cgz4gq2v,52 Supply Rd,Bentley Park,QLD,4869
RC Maintenance,0429 36 3731,https://www.localsearch.com.au/profile/rc-maintenance/mount-sheridan-qld/LuAw,,Mount Sheridan,QLD,4868
Ozsafe Smoke Alarm Service,0432 00 6858,https://www.localsearch.com.au/profile/ozsafe-smoke-alarm-service-pty-ltd/edge-hill-qld/JuGr,,Edge Hill,QLD,4870
CJD Electrical,0432 23 2214,https://www.localsearch.com.au/profile/cjd-electrical/cairns-qld-4870/rBOU,,Gordonvale,QLD,4865
Cooper Norman Security and Electrical,0432 37 0131,https://www.localsearch.com.au/profile/cooper-norman-security-and-electrical/clto0lhyt00xh08l83v6wb1x6,14 Windamere Cl,Brinsmead,QLD,4870
Advanced Fencing and Gates Cairns,0432 68 1124,https://www.localsearch.com.au/profile/advanced-fencing-and-gates-cairns/clwiufzkn000a08jp1crhc6j9,49-53 Howard Kennedy Dr,Babinda,QLD,4861
Fellows Painting,0432 81 6610,https://www.localsearch.com.au/profile/fellows-painting/white-rock-qld-4868/oGA0,,White Rock,QLD,4868
White Rock Electrical Contractors,0435 93 5639,https://www.localsearch.com.au/profile/white-rock-electrical-contractors/trinity-beach-qld/OG7y,,Trinity Beach,QLD,4879
BK's Carpet Cleaning And Pest Control Cairns,0435 94 8980,https://www.localsearch.com.au/profile/bk-s-carpet-cleaning-pest-control/edmonton-qld/Psnb,,Edmonton,QLD,4869
Customised Pest Control,0438 34 4007,https://www.localsearch.com.au/profile/customised-pest-control/cairns-qld-4870/ntJB,,Cairns,QLD,4870
D & B Plumbing NQ,0439 31 9449,https://www.localsearch.com.au/profile/d-b-plumbing-nq/trinity-beach-qld/cYiQ,,Trinity Beach,QLD,4879
Tropical North Concreting,0439 77 2399,https://www.localsearch.com.au/profile/tropical-north-concreting/trinity-park-qld/SHdM,,Trinity Park,QLD,4879
Prodigy Lawns,0447 44 2230,https://www.localsearch.com.au/profile/prodigy-lawns/mossman-qld/k70o,30 Thomas St,Mossman,QLD,4873
A Truclean,0447 44 7471,https://www.localsearch.com.au/profile/a-truclean/cairns-qld-4870/N0Ji,,Cairns,QLD,4870
Jim's Cleaning,0447 59 9590,https://www.localsearch.com.au/profile/jim-s-cleaning/trinity-beach-qld/P4rY,Unit 5 91-93 Moore St,Trinity Beach,QLD,4879
Endurance Electrical,0448 11 3390,https://www.localsearch.com.au/profile/endurance-electrical/smithfield-qld/hZkU,,Smithfield,QLD,4878
Hot Energy Electrical Service,0448 88 4666,https://www.localsearch.com.au/profile/hot-energy-electrical-service/cltnzxzwi000x08l46m82bcws,Sapphire Cl,Bayview Heights,QLD,4868
888 World Cargo,0449 78 8242,https://www.localsearch.com.au/profile/888-world-cargo/stratford-qld/RVC2,9 Industrial Ave,Stratford,QLD,4870
Tropical Roofing,0450 16 6329,https://www.localsearch.com.au/profile/tropical-roofing/cairns-qld-4870/Xp0l,5 74 Telford St,Cairns,QLD,4870
MK Family Law,0458 00 9724,https://www.localsearch.com.au/profile/mk-family-law/cairns-qld-4870/RmSH,,Cairns,QLD,4870
Tidy-Up Cairns,0468 61 6835,https://www.localsearch.com.au/profile/tidy-up-cairns/cltnx3856007l08lea0ur7xn1,128 55-57 Clifton Rd,Clifton Beach,QLD,4879
Cairns Automatic Doors,0477 00 5008,https://www.localsearch.com.au/profile/cairns-automatic-doors/mooroobool-qld/T9bk,8 Andrea Cl,Mooroobool,QLD,4870
Top Skips,0477 66 7002,https://www.localsearch.com.au/profile/top-skips/brinsmead-qld/Z7nL,6 Loridan Drv,Brinsmead,QLD,4870
Rebekah Bassano–Barrister,0477 68 9991,https://www.localsearch.com.au/profile/rebekah-bassano-barrister/cairns-city-qld/NMIy,Lvl 127 Abbott St,CAIRNS CITY,QLD,4870
Sweatbusters Air Conditioning,0481 87 9328,https://www.localsearch.com.au/profile/sweatbusters-air-conditioning/cltnwnbvo000t08jh1ci3ccdq,11 Norwood Cres,Trinity Park,QLD,4879
Palm Cove Electrical,0488 02 5649,https://www.localsearch.com.au/profile/palm-cove-electrical/palm-cove-qld/8Xry,,Clifton Beach,QLD,4879
Cairnscrete Pumping,0488 78 6746,https://www.localsearch.com.au/profile/cairnscrete-pumping/bungalow-qld/B2qt,5 Cava Cl,Earlville,QLD,4870
QIFVLS Cairns Office,07 4030 0400,https://www.localsearch.com.au/profile/qifvls-cairns-office/cltnxnh8100co08jxhl4bd0nj,Level 2 Suite 101-111 Spence St,Portsmith,QLD,4870
Reaston Drummond Law,07 4031 1044,https://www.localsearch.com.au/profile/reaston-drummond-law/cairns-qld-4870/Js6u,36 Grafton St,Cairns,QLD,4870
Easylift Cairns,07 4031 1311,https://www.localsearch.com.au/profile/easylift-cairns/cairns-qld-4870/GFxj,183 Lyons St,Cairns,QLD,4870
Trinity Fire Services,07 4031 3077,https://www.localsearch.com.au/profile/trinity-fire-services/bungalow-qld/oCcZ,18 Federation St,Bungalow,QLD,4870
Kitchens by CCJS,07 4031 4911,https://www.localsearch.com.au/profile/kitchens-by-ccjs/bungalow-qld/Z9bv,11 Muir St,Bungalow,QLD,4870
Moore Laura Slctr,07 4031 7133,https://www.localsearch.com.au/profile/moore-laura-slctr/cairns-city-qld/4X3S,Flr 1 59 Spence St,Cairns City,QLD,4870
King of Knives Cairns,07 4031 8673,https://www.localsearch.com.au/profile/king-of-knives/cairns-central-qld/wmnM,Shop 21 McLeod St,Cairns,QLD,4870
Plumbnorth,07 4032 3891,https://www.localsearch.com.au/profile/plumbnorth-pty-ltd/cairns-north-qld/AwGH,19 Knight St,Portsmith,QLD,4870
Vellacorp Painting Services,07 4033 0002,https://www.localsearch.com.au/profile/vellacorp-painting-services/woree-qld/z3uH,16 Atticus St,Woree,QLD,4868
Domestic Violence Service Cairns,07 4033 6100,https://www.localsearch.com.au/profile/domestic-violence-service-cairns/cairns-city-qld/twhu,Lvl 2 88 Abbott St,Cairns City,QLD,4870
Cairns Regional Domestic Violence Service,07 4033 6100,https://www.localsearch.com.au/profile/cairns-regional-domestic-violence-service/cairns-city-qld/dZ2v,Level 88 Abbott St,Cairns City,QLD,4870
Redspot Car Rentals - Cairns Airport,07 4034 9045,https://www.localsearch.com.au/profile/redspot-car-rentals-cairns-airport/clyioxfq5000a08medsfbb4s7,2 Airport Ave,Cairns City,QLD,4870
Down to Earth Demolitions,07 4035 2555,https://www.localsearch.com.au/profile/down-to-earth-demolitions/portsmith-qld/QRVa,22 Aumuller St,Portsmith,QLD,4870
KAC Generation & Mechanical Pty Ltd,07 4035 2746,https://www.localsearch.com.au/profile/kac-generation-mechanical-pty-ltd/bungalow-qld/nPSX,,Bungalow,QLD,4870
EK Design Kitchens,07 4035 2800,https://www.localsearch.com.au/profile/ek-design-kitchens/portsmith-qld/BKiF,Shed 54 Buchan St,Portsmith,QLD,4870
C.T. Freight,07 4035 5808,https://www.localsearch.com.au/profile/c-t-freight/cairns-qld-4870/Zc1Y,Lvl 2/77 Caudron Ave,Cairns,QLD,4870
Mansia Bovey & Company Lawyers,07 4035 8300,https://www.localsearch.com.au/profile/mansia-bovey-company-lawyers/cairns-city-qld/wKlp,1 42-44 Spence St,Cairns City,QLD,4870
Computerman IT,07 4036 1320,https://www.localsearch.com.au/profile/computerman-it/edge-hill-qld/SYpP,71 Aumuller St,Edge Hill,QLD,4870
Cairns Window Tinting,07 4038 3757,https://www.localsearch.com.au/profile/cairns-window-tinting/trinity-beach-qld/xEBu,,Trinity Beach,QLD,4879
Smithfield Law,07 4038 8300,https://www.localsearch.com.au/profile/smithfield-law/smithfield-qld/9koi,Office 5 1057 Captain Cook Hwy,Smithfield,QLD,4878
Breakthrough Group,07 4038 8777,https://www.localsearch.com.au/profile/breakthrough-group/smithfield-qld/qfY1,,Smithfield,QLD,4878
Joe Vella Insurance Brokers,07 4040 4444,https://www.localsearch.com.au/profile/joe-vella-insurance-brokers/parramatta-park-qld/CZPg,Lvl 1 108 Mulgrave Rd,Parramatta Park,QLD,4870
Sail Structures,07 4041 1488,https://www.localsearch.com.au/profile/sail-structures/cairns-qld-4870/nq4P,14 Doyle St,Cairns,QLD,4870
Cairns Coatings Paint & Abrasives,07 4041 3311,https://www.localsearch.com.au/profile/cairns-coatings-paint-abrasives/portsmith-qld/1c5f,223 Hartley St,Portsmith,QLD,4870
Bohemia Resort Cairns,07 4041 7290,https://www.localsearch.com.au/profile/bohemia-resort-cairns/cairns-qld-4870/50MI,231 McLeod St,Cairns,QLD,4870
Kennards Hire Cairns,07 4042 9400,https://www.localsearch.com.au/profile/kennards-hire-portsmith/portsmith-qld/kGrS,125 Hartley St,Portsmith,QLD,4870
Semrau Constructions,07 4045 3711,https://www.localsearch.com.au/profile/semrau-constructions-pty-ltd/bentley-park-qld/7CZp,23 Barcoo Cl,Bentley Park,QLD,4869
QIFVLS Head Office,07 4045 7500,https://www.localsearch.com.au/profile/qifvls-head-office/clto2nwwm00up08i7hz139m0b,Level 1 Suite 4 & 5 101-111 Spence St,Portsmith,QLD,4870
Camerons Carpet Court,07 4051 1088,https://www.localsearch.com.au/profile/camerons-carpet-court/westcourt-qld/67Uc,176 Mulgrave Rd,Westcourt,QLD,4870
Nomad Stainless Steel,07 4051 6667,https://www.localsearch.com.au/profile/nomad-stainless-steel/bungalow-qld/P2xy,170 Newell St,Bungalow,QLD,4870
Richardson's Electrical Service,07 4051 7711,https://www.localsearch.com.au/profile/richardson-s-electrical-service/bungalow-qld/UWrZ,1 Rodda St,Bungalow,QLD,4870
Cairns Holiday Lodge,07 4052 5000,https://www.localsearch.com.au/profile/cairns-holiday-lodge/cairns-qld-4870/Q3K4,259 Sheridan St,Cairns,QLD,4870
Cairns Synergy Electrical,07 4053 2159,https://www.localsearch.com.au/profile/cairns-synergy-electrical/manunda-qld/yL1X,202-204 McCormack St,Manunda,QLD,4870
Stitch Master,07 4053 7773,https://www.localsearch.com.au/profile/stitch-master/manunda-qld/lQgV,9 Macnamara St,Manunda,QLD,4870
All Construction Approvals,07 4054 4588,https://www.localsearch.com.au/profile/all-construction-approvals/woree-qld/NrmB,,Woree,QLD,4868
Bees Electrics,07 4054 7609,https://www.localsearch.com.au/profile/bees-electrics/woree-qld/EbT8,Shed 23-27 Atticus St,Woree,QLD,4868
Big Boyz Binz,07 4055 9585,https://www.localsearch.com.au/profile/big-boyz-binz/barron-qld/HDnK,563 Captain Cook Hwy,Barron,QLD,4878
Big Blue Self Storage Smithfield,07 4057 8645,https://www.localsearch.com.au/profile/big-blue-self-storage-smithfield/smithfield-qld/wLPX,9-11 Maisel Cl,Smithfield,QLD,4878
Tormey's Air & Ice Refrigeration & Air Conditioning,07 4057 9163,https://www.localsearch.com.au/profile/tormey-s-air-ice-refrigeration-air-conditioning/trinity-beach-qld/KXZY,Shop 11 5 Rabaul St,Trinity Beach,QLD,4879
All Energy Queensland,07 4058 0442,https://www.localsearch.com.au/profile/all-energy-queensland/clto2z362001t08jr2hemh0a7,Unit 5/21 Johnston St,Stratford,QLD,4870
CCW Cabinet Works,07 4058 9333,https://www.localsearch.com.au/profile/ccw-cabinet-works/stratford-qld/8Len,Level 1 10 Industrial Ave,Stratford,QLD,4870
Cairns Carrying Company,07 4061 6426,https://www.localsearch.com.au/profile/cairns-carrying-company/cairns-qld-4870/D52N,40 Clifford St,Cairns,QLD,4870
Cleaning Cairns Pro,07 4082 7680,https://www.localsearch.com.au/profile/cleaning-cairns/clqtg8k8o000a09l55lpr3mwm,,Cairns North,QLD,4870
Atherton Cabinets & Joinery,07 4095 8362,https://www.localsearch.com.au/profile/atherton-cabinets-joinery/kairi-qld/a0YG,17 24 Irvine St,Kairi,QLD,4872
Central Bottleshop,07 4099 4844,https://www.localsearch.com.au/profile/central-bottleshop/port-douglas-qld/LL7s,9 Macrossan St,Port Douglas,QLD,4877
Northern Air Repair,07 4229 9050,https://www.localsearch.com.au/profile/northern-air-repair/manunda-qld/oYrf,,Woree,QLD,4868
SuperGreen Solutions,07 4230 0906,https://www.localsearch.com.au/profile/supergreen-solutions/portsmith-qld/7qC3,Unit 7 90 Aumuller St,Portsmith,QLD,4870
Huzgroup Electrical,07 4243 3503,https://www.localsearch.com.au/profile/huzgroup-electrical/gordonvale-qld/RLtX,312 Highleigh Rd,Gordonvale,QLD,4865
Ten Years Younger Home Care,07 4255 6822,https://www.localsearch.com.au/profile/ten-years-younger-home-care/edge-hill-qld/EbrY,24 110 112 Collins Ave,Edge Hill,QLD,4870
Pure Magic Domestic and Commercial Services,07 4774 3666,https://www.localsearch.com.au/profile/pure-magic-domestic-and-commercial-services/bentley-park-qld/lG24,Resolution Dr,Bentley Park,QLD,4869
Flight Centre Smithfield,1300 15 8615,https://www.localsearch.com.au/profile/flight-centre-smithfield/smithfield-qld/pWEu,Kennedy Hwy,Smithfield,QLD,4878
Flight Centre Cairns,1300 35 8508,https://www.localsearch.com.au/profile/flight-centre-cairns/cairns-qld-4870/s66v,Shop 82 82 Lake St,Cairns,QLD,4870
Flight Centre Cairns Central,1300 67 7019,https://www.localsearch.com.au/profile/flight-centre-cairns/cairns-qld-4870/6V17,Shop L01-122 1-21 McLeod St,Cairns,QLD,4870
Ace Fridge Door Seals,1800 00 8991,https://www.localsearch.com.au/profile/ace-fridge-door-seals/kuranda-qld/ZmZx,43 High Chapparal Rd,Kuranda,QLD,4881
Family Law at Hadley Family Law,N/A,https://www.localsearch.com.au/profile/family-law-at-hadley-family-law/cairns-qld-4870/Wmmv,82 Scott St,Cairns,QLD,4870
Sun Insulation,N/A,https://www.localsearch.com.au/profile/sun-insulation/cairns-qld-4870/Ftns,13 Morrison St,Cairns,QLD,4870
TNT Express,N/A,https://www.localsearch.com.au/profile/tnt-express/woree-qld/3tVl,15-21 Spoto St,Woree,QLD,4868
It's a Blast,N/A,https://www.localsearch.com.au/profile/it-s-a-blast/cairns-qld-4870/v5Hy,,Cairns,QLD,4870
Substation Solutions,N/A,https://www.localsearch.com.au/profile/substation-solutions/cairns-qld-4870/Iw4Z,,Cairns,QLD,4870
Haden Air Conditioning Cairns,N/A,https://www.localsearch.com.au/profile/haden-air-conditioning-cairns/bungalow-qld/wKVS,224-226 Scott St,Bungalow,QLD,4870
Pro Form Concrete,N/A,https://www.localsearch.com.au/profile/pro-form-concrete/palm-cove-qld/Lv6z,6 Everglades St,Palm Cove,QLD,4879
