name,phone,url,street,suburb,state,postcode
Coverall Real Estate,0400 92 7527,https://www.localsearch.com.au/profile/coverall-real-estate/edmonton-qld/N08n,Shop 4/113 115 Bruce Hwy,Edmonton,QLD,4869
Holmes Commercial Real Estate,0402 34 8695,https://www.localsearch.com.au/profile/holmes-commercial-real-estate/cairns-city-qld/VB25,Unit 3 129 Lake St,Cairns City,QLD,4870
Brian Bolton Real Estate,0402 44 0098,https://www.localsearch.com.au/profile/brian-bolton-real-estate/gordonvale-qld/Vreb,50-52 Norman St,Gordonvale,QLD,4865
David Galloway-Penney - Real Estate Agent,0402 48 3818,https://www.localsearch.com.au/profile/david-galloway-penney-real-estate-agent/mooroobool-qld/Hb24,2 10 Carnation Dr,Mooroobool,QLD,4870
Airbnb Real Estate,0403 47 7430,https://www.localsearch.com.au/profile/airbnb-real-estate/palm-cove-qld/iMse,,Palm Cove,QLD,4879
Formosa Irrigation,0405 19 0991,https://www.localsearch.com.au/profile/formosa-irrigation/mooroobool-qld/0Oig,,Bentley Park,QLD,4869
Matthew's Corporate Massage,0405 19 5319,https://www.localsearch.com.au/profile/matthew-s-corporate-massage/edge-hill-qld/uDsV,,Edge Hill,QLD,4870
Barter Photography,0406 02 2918,https://www.localsearch.com.au/profile/barter-photography/clto2yfrq001i08l7hrq65z1a,17 Yiki St,Port Douglas,QLD,4877
Thomas Baldwin Boutique Real Estate,0407 09 1834,https://www.localsearch.com.au/profile/thomas-baldwin-boutique-real-estate/edge-hill-qld/OQXe,4 132 Collins Ave,Edge Hill,QLD,4870
Resort Sales - Management Rights,0407 13 7186,https://www.localsearch.com.au/profile/resort-sales-management-rights/clto1my3p00kr08jmbp07h903,201 187 Mulgrave Rd,Cairns City,QLD,4870
Felix Grasso Real Estate,0407 31 2293,https://www.localsearch.com.au/profile/felix-grasso-real-estate/cairns-city-qld/k1Dr,69 Sheridan St,Cairns City,QLD,4870
Under Pressure Services,0407 99 4906,https://www.localsearch.com.au/profile/under-pressure-services/westcourt-qld/c6iG,166 Mulgrave Rd,Westcourt,QLD,4870
RE/MAX Real Estate Services 2021,0408 07 9340,https://www.localsearch.com.au/profile/remax-real-estate-services-2021/clto1homg000g08jo3390b98h,47 Heavey Cres,Cairns City,QLD,4870
Pressure Cleaning Queensland,0408 38 2464,https://www.localsearch.com.au/profile/pressure-cleaning-queensland/woree-qld/gf1c,,Woree,QLD,4868
Unique Constructions Nth Qld,0408 53 6942,https://www.localsearch.com.au/profile/unique-constructions-nth-qld/smithfield-qld/MnKf,68 Argentea Blvd,Palm Cove,QLD,4879
Barrier Reef Pearls,0408 73 8739,https://www.localsearch.com.au/profile/barrier-reef-pearls/clto48qoj003j08l631msgxgh,258 Aumuller St,Westcourt,QLD,4870
Ulysses Real Estate Cairns,0408 78 8221,https://www.localsearch.com.au/profile/ulysses-real-estate-cairns/gordonvale-qld/g8P1,9 Campbell St,Gordonvale,QLD,4865
Paula Campion - Real Estate Agent,0409 26 7756,https://www.localsearch.com.au/profile/paula-campion-real-estate-agent/cairns-city-qld/chf9,35 Lake St,Cairns City,QLD,4870
Mast trees,0409 27 4992,https://www.localsearch.com.au/profile/mast-trees/cltnwpbhq00a208l7gs680hfu,35 Pease St,Manoora,QLD,4870
Cairns Property Rentals,0409 45 9861,https://www.localsearch.com.au/profile/cairns-property-rentals/mooroobool-qld/DgbJ,,Mooroobool,QLD,4870
Q & A Total Realty,0409 57 7078,https://www.localsearch.com.au/profile/q-and-a-total-realty/clto04sx2011708lc0gghexxt,203 Mayers St,Manoora,QLD,4870
FNQ Buyers Agent - Cairns - Townsville - Port Douglas,0410 58 7763,https://www.localsearch.com.au/profile/fnq-buyers-agent/aeroglen-qld/ncvl,,Townsville,QLD,4870
FNQ Buyers Agent,0410 58 7763,https://www.localsearch.com.au/profile/fnq-buyers-agent-cairns-port-douglas/clk8q1wn000bf08l497bhbs8y,79 McLeod St,Cairns City,QLD,4870
Staging Cairns,0410 73 0353,https://www.localsearch.com.au/profile/staging-cairns/cltnx7pkk001q08ia3ysaa0bj,Woodward St,Whitfield,QLD,4870
Barbara Lamont - RE/MAX Cairns,0411 19 3030,https://www.localsearch.com.au/profile/barbara-lamont-re-max-cairns/cairns-qld-4870/pJWU,47 Heavey Cres,CAIRNS,QLD,4870
Netbanking,0412 19 0708,https://www.localsearch.com.au/profile/netbanking/cltnxyzzf005308l2ahw7cv21,Faber Apartments 71 Boland St,Westcourt,QLD,4870
Terry Loftus Real Estate,0412 47 2172,https://www.localsearch.com.au/profile/terry-loftus-real-estate/cairns-qld-4870/LXWB,20 Lake St,CAIRNS,QLD,4870
Revolution Real Estate Cairns,0412 85 2369,https://www.localsearch.com.au/profile/revolution-real-estate-cairns/cairns-qld-4870/KRwv,Shop 2 21 Sheridan St,CAIRNS,QLD,4870
Mihaven,0414 25 6500,https://www.localsearch.com.au/profile/mihaven-pty-ltd/cairns-city-qld/Bqwl,Unit 1 130 Abbott St,Cairns City,QLD,4870
Koah Realty,0414 99 9687,https://www.localsearch.com.au/profile/koah-realty/koah-qld/TY2A,1153 Koah Rd,Koah,QLD,4881
Ben August @realty,0415 80 7546,https://www.localsearch.com.au/profile/ben-august-realty/cltny7xey00m908jrh3fv20rf,28 Michaelangelo Dr,Redlynch,QLD,4870
FNQ Hot Property,0416 25 4730,https://www.localsearch.com.au/profile/fnq-hot-property/trinity-park-qld/NBle,2 Ragamuffin Quay,Trinity Park,QLD,4879
Manning Builders,0417 05 8868,https://www.localsearch.com.au/profile/manning-builders/cairns-qld-4870/J5of,,Cairns,QLD,4870
Cool Build,0417 09 7013,https://www.localsearch.com.au/profile/cool-build/manoora-qld/4Ni9,,Bayview Heights,QLD,4868
AAA Locksmiths,0417 21 6774,https://www.localsearch.com.au/profile/aaa-locksmiths/earlville-qld/8kvs,22 De Jarlais St,Earlville,QLD,4870
Antennas Today,0417 60 6388,https://www.localsearch.com.au/profile/antennas-today/whitfield-qld/BBd7,,Cairns,QLD,4870
RE/MAX Real Estate Services 2022,0417 74 0550,https://www.localsearch.com.au/profile/remax-real-estate-services-2022/cltnxzoe8004x08kxaag1fs8h,47 Heavey Cres,Whitfield,QLD,4870
Sharon Vyner Real Estate,0417 77 8606,https://www.localsearch.com.au/profile/sharon-vyner-real-estate/gordonvale-qld/7Xfr,Shop 1 50 Norman St,Gordonvale,QLD,4865
Tony McGrath Real Estate Port Douglas,0418 77 2277,https://www.localsearch.com.au/profile/tony-mcgrath-real-estate-port-douglas/cltnzhbr900rn08lc9bvrf8pr,Unit 2 17-19 Owen St,Craiglie,QLD,4877
Deborah Duffy Estate Agent,0418 77 3747,https://www.localsearch.com.au/profile/deborah-duffy-principal-licensee/nanum-qld/MS88,,Redlynch,QLD,4870
Steve Cordenos Real Estate,0418 77 4994,https://www.localsearch.com.au/profile/steve-cordenos-real-estate/mooroobool-qld/QNbc,24 8 14 Munro Terrace,Mooroobool,QLD,4870
Roland Buyers Agency,0418 98 6989,https://www.localsearch.com.au/profile/roland-buyers-agency/cm7bn17cl000108l82ern1ybf,,Edge Hill,QLD,4870
Pine Creek Pictures,0419 02 8077,https://www.localsearch.com.au/profile/pine-creek-pictures/cairns-north-qld/70Sr,247 McLeod St,Cairns North,QLD,4870
120 Vasey Esplanade,0419 53 0008,https://www.localsearch.com.au/profile/120-vasey-esplanade/cltnweizc002208l53xw95p5j,120 Vasey Esplanade,Trinity Beach,QLD,4879
The Industry Estate Agents,0421 38 9833,https://www.localsearch.com.au/profile/the-industry-estate-agents/clto0ngm000d908l8a3jc5k01,13 Fossilbrook Bend,Kewarra Beach,QLD,4879
The Industry Estate Agents,0421 38 9833,https://www.localsearch.com.au/profile/the-industry-estate-agents/clto0kijq002o08gqeol95liq,Alva Cl,Kewarra Beach,QLD,4879
Signs by US,0422 87 8139,https://www.localsearch.com.au/profile/signs-by-us/portsmith-qld/c5LI,54 Sturt St,Bungalow,QLD,4870
Port Douglas Jet Ski Hire,0423 00 2720,https://www.localsearch.com.au/profile/port-douglas-jet-ski-hire/port-douglas-qld/CBns,Wharf St,Port Douglas,QLD,4877
Selflet,0423 32 9910,https://www.localsearch.com.au/profile/selflet/cltnxxy3m005h08la2r8u5z8z,Stanton Place 2 Stanton Place Stanton Road,Smithfield,QLD,4878
Thought Power Hypnotherapy,0427 38 1782,https://www.localsearch.com.au/profile/thought-power-hypnotherapy/clxii6fmh000n08mfczexh68s,3 Lydia St,Smithfield,QLD,4878
Cairns Floorplans,0428 64 5501,https://www.localsearch.com.au/profile/cairns-floorplans/clto21uts002q08i5cqz60giq,10 Lake St,Cairns City,QLD,4870
Attachment Matters,0430 28 4914,https://www.localsearch.com.au/profile/attachment-matters-child-centred-family-services/cljwfy1dw003w08l8aokfe7rb,369 Brinsmead Rd,Brinsmead,QLD,4870
Sean Thorpe - Real Estate Cairns Beaches,0431 05 2490,https://www.localsearch.com.au/profile/sean-thorpe-real-estate-cairns-beaches/cl7n4h0qw00ya09mmbxs4bo2w,71B Williams Esp,Palm Cove,QLD,4879
Shane Trimby,0431 06 7637,https://www.localsearch.com.au/profile/shane-trimby/redlynch-qld/qbjL,Shop 19a 19 Larsen Rd,Redlynch,QLD,4870
Cairns Rentals & Sales Real Estate,0431 90 0668,https://www.localsearch.com.au/profile/cairns-rentals-sales-real-estate/trinity-beach-qld/7VAD,47 Seaways St,Trinity Beach,QLD,4879
Cairns Real Estate Photography,0434 13 7777,https://www.localsearch.com.au/profile/cairns-real-estate-photography/cli3xn4v9001f08l363cx5r7s,110 1 Maytown Cl,Manoora,QLD,4870
SwiftCleaning,0436 46 2073,https://www.localsearch.com.au/profile/swiftcleaning/smithfield-qld/nEXs,,Smithfield,QLD,4878
FNQ First Aid,0437 17 8243,https://www.localsearch.com.au/profile/fnq-first-aid/cltnwtk8v004508l4gj9m9wbw,14 Greenford Cl,Brinsmead,QLD,4870
Marquis on Grafton,0437 44 2472,https://www.localsearch.com.au/profile/marquis-on-grafton/cairns-city-qld/gAkD,123-131 Grafton St,Cairns City,QLD,4870
Painting & Maintenance FNQ Handyman Service,0437 78 1346,https://www.localsearch.com.au/profile/painting-and-maintenance-fnq-handyman-service/cltgtm4rg001i08jt11fd9f20,,Clifton Beach,QLD,4879
Seven Stars Cupcakery,0438 10 6356,https://www.localsearch.com.au/profile/seven-stars-cupcakery/cairns-qld-4870/YvKm,198 Hartley St,CAIRNS,QLD,4870
Beat's Yard Maintenance & Landscaping,0438 52 7752,https://www.localsearch.com.au/profile/beat-s-yard-maintenance-landscaping/cairns-qld-4870/r3Oa,,Cairns,QLD,4870
FNQ Smoke Alarms & Maintenance,0438 75 6193,https://www.localsearch.com.au/profile/fnq-smoke-alarms-maintenance/mount-sheridan-qld/Qkh1,,Mount Sheridan,QLD,4868
Millaa Millaa Real Estate,0438 96 5440,https://www.localsearch.com.au/profile/millaa-millaa-real-estate/millaa-millaa-qld/jsuq,13 Main St,Millaa Millaa,QLD,4886
Cairns Realty,0439 98 8256,https://www.localsearch.com.au/profile/cairns-realty/cltnwum52001609ld3b3p8zft,241 Oshea Esplanade,Machans Beach,QLD,4878
MP Media,0448 39 1958,https://www.localsearch.com.au/profile/mp-media/clcsgt4xr000h08l311cg3ldw,Anderson Manor 457 Severin St,Manunda,QLD,4870
Complete Property Repairs And Maintenance,0458 14 9925,https://www.localsearch.com.au/profile/complete-property-repairs-and-maintenance/clzuurrkn001m08lchq824l7f,,Caravonica,QLD,4878
Area Real Estate,0458 40 8540,https://www.localsearch.com.au/profile/area-real-estate/yungaburra-qld/2Od2,,Yungaburra,QLD,4884
Mediation Works QLD,0466 07 6020,https://www.localsearch.com.au/profile/mediation-works-qld/clto3sg9n00rr08jzasf2b33r,33 Lake St,Cairns City,QLD,4870
Cairns Pool Service,0466 87 3322,https://www.localsearch.com.au/profile/cairns-pool-service/mooroobool-qld/2mNN,,Mooroobool,QLD,4870
Freshwater Pool Safety Inspections,0474 49 0534,https://www.localsearch.com.au/profile/freshwater-pool-safety-inspections/freshwater-qld/5Av9,6 199 Kamerunga Rd,Freshwater,QLD,4870
Kate Fern Real Estate,0477 70 1502,https://www.localsearch.com.au/profile/kate-fern-real-estate/cairns-city-qld/UkcI,116 Grafton St,Cairns City,QLD,4870
K9 concepts,0478 66 8582,https://www.localsearch.com.au/profile/k9-concepts/clto3v2j9007o08l8dunpghr1,Reynolds Park Reynolds Park Cnr Blake St & Garrick St,Port Douglas,QLD,4877
Open2View,0478 73 2232,https://www.localsearch.com.au/profile/open2view/bayview-heights-qld/mHN5,,Bayview Heights,QLD,4868
Port Douglas Photographer,0481 70 8844,https://www.localsearch.com.au/profile/port-douglas-photographer/clto04w1e011f08lc8d335ni3,Suite 2 45 Endeavour St,Port Douglas,QLD,4877
Cairns Property Office South,0488 07 1007,https://www.localsearch.com.au/profile/cairns-property-office-south/clto3mklj018k08l5gbqy2ipn,Shop 1 56 Norman St,Gordonvale,QLD,4865
Saltwater Commercial Building,0488 21 2243,https://www.localsearch.com.au/profile/saltwater-commercial-building/clto1j68000nr08jm3s4hgbsy,Saltwater Commercial 30 Macrossan St,Port Douglas,QLD,4877
Taipan Horticultural Services,0488 54 7111,https://www.localsearch.com.au/profile/taipan-horticultural-services/edmonton-qld/1S6I,,Edmonton,QLD,4869
Cairns City Real Estate,0488 56 9333,https://www.localsearch.com.au/profile/cairns-city-real-estate/holloways-beach-qld/BX2L,,Holloways Beach,QLD,4878
Allana May Real Estate,0488 56 9333,https://www.localsearch.com.au/profile/low-fee-real-estate/holloways-beach-qld/RuGX,,Edge Hill,QLD,4870
Holloways Beach Realty,0488 56 9333,https://www.localsearch.com.au/profile/holloways-beach-realty/holloways-beach-qld/z3Mp,,Holloways Beach,QLD,4878
Belle Property Escapes Palm Cove,0497 31 9172,https://www.localsearch.com.au/profile/belle-property-escapes-palm-cove/cltnzli9800gl08l4d2487j18,Shop 4B 17 Veivers Rd,Palm Cove,QLD,4879
Ben Hope Guitaring,0499 77 4998,https://www.localsearch.com.au/profile/ben-hope-guitaring/cairns-qld-4870/pMVm,35 Lillipilli Street,Redlynch,QLD,4870
Fox Mowing & Gardening Cairns,07 3487 1723,https://www.localsearch.com.au/profile/fox-mowing-and-gardening-cairns/clwg75xbb000a08l49la3ce5m,,Manunda,QLD,4870
AJA Bookkeeping Services,07 4028 3745,https://www.localsearch.com.au/profile/aja-bookkeeping-services/parramatta-park-qld/463d,236 Draper St,Parramatta Park,QLD,4870
Cairns Leading Real Estate,07 4030 0300,https://www.localsearch.com.au/profile/cairns-leading-real-estate/cairns-north-qld/JqKA,163 Sheridan St,Cairns North,QLD,4870
Romano Real Estate & Property Management,07 4030 0333,https://www.localsearch.com.au/profile/romano-real-estate-property-management/cairns-qld-4870/OeLv,163 Sheridan St,Cairns,QLD,4870
Koala Blue Real Estate,07 4031 1552,https://www.localsearch.com.au/profile/koala-blue-real-estate/bungalow-qld/lJNv,3 131 Scott St,Bungalow,QLD,4870
Twomey Schriber Property Group,07 4031 3138,https://www.localsearch.com.au/profile/twomey-schriber-property-group/cairns-north-qld/qYTz,320 Sheridan St,Cairns North,QLD,4870
Colliers Cairns,07 4031 3443,https://www.localsearch.com.au/profile/colliers-cairns/cairns-qld-4870/WdDz,35 Lake St,Cairns,QLD,4870
Stuart Gay Real Estate,07 4031 3913,https://www.localsearch.com.au/profile/chris-gay-real-estate/bungalow-qld/vWcv,Unit 3 161 Aumuller St,Bungalow,QLD,4870
O'Reilly Stevens Lawyers,07 4031 7133,https://www.localsearch.com.au/profile/o-reilly-stevens-lawyers-pty-ltd/cairns-city-qld/WLPh,Level 59 Spence St,Cairns,QLD,4870
Hunt Realty,07 4031 7579,https://www.localsearch.com.au/profile/hunt-realty/cairns-city-qld/0bAz,1 12/14 Lake St,Cairns City,QLD,4870
Cairns Local News,07 4031 7678,https://www.localsearch.com.au/profile/cairns-local-news/clto3956f014k08ld5ctph3tj,Level 1 Suite F03 The Conservatory 12/14 Lake St,Cairns City,QLD,4870
property4you,07 4032 4881,https://www.localsearch.com.au/profile/property4you/cairns-qld-4870/A5s5,5 239-241 McLeod St,CAIRNS,QLD,4870
Elders Real Estate,07 4033 1655,https://www.localsearch.com.au/profile/elders-real-estate/cairns-qld-4870/HUaD,124 Anderson St,CAIRNS,QLD,4870
Garry Walker Real Estate,07 4033 2049,https://www.localsearch.com.au/profile/garry-walker-real-estate/earlville-qld/8cZj,504 Mulgrave Rd,Earlville,QLD,4870
Donna Cahill Cairns Property,07 4033 5118,https://www.localsearch.com.au/profile/donna-cahill-cairns-property/woree-qld/c3JA,Shop 15 6 Charlotte Cl,Woree,QLD,4868
Body & Beauty Unlimited,07 4033 7255,https://www.localsearch.com.au/profile/body-beauty-unlimited/woree-qld/YZr8,6 566 Mulgrave Rd,Woree,QLD,4868
STEPS Group Cairns,07 4034 5400,https://www.localsearch.com.au/profile/steps-group-australia/clomha1bp002h08l56sqk3n1c,Suite 2/46-50 Spence Street,Cairns City,QLD,4870
Cairns Residential Property Management,07 4035 2177,https://www.localsearch.com.au/profile/cairns-residential-property-management-pty-ltd/portsmith-qld/RAr8,Unit 4 3 Toohey St,Portsmith,QLD,4870
Property Ladder Realty,07 4035 3044,https://www.localsearch.com.au/profile/property-ladder-realty/bungalow-qld/lBWK,128 Aumuller St,Bungalow,QLD,4870
Real Living Options Association,07 4035 5886,https://www.localsearch.com.au/profile/real-living-options-association/clto4e5ln00y008l3504khv11,Showground Shopping Centre 157 Mulgrave Rd,Bungalow,QLD,4870
Real Living Options Association Inc.,07 4035 5886,https://www.localsearch.com.au/profile/real-living-options/cltnvw76h001v08jo403p91sm,Shop 1 157 Mulgrave Rd,Bungalow,QLD,4870
Design Lab Cairns,07 4035 6515,https://www.localsearch.com.au/profile/design-lab-cairns/portsmith-qld/tscQ,Shop 11 193 Hartley St,Portsmith,QLD,4870
Bragg Real Estate,07 4036 4895,https://www.localsearch.com.au/profile/bragg-real-estate/edge-hill-qld/C5VR,Edge Hill Shops Unit 4 86-88 Woodward St,Edge Hill,QLD,4870
Real Estate Connection,07 4038 1112,https://www.localsearch.com.au/profile/real-estate-connection/smithfield-qld/KciO,2-6 Cumberland Ave,Smithfield,QLD,4878
Professionals Cairns Beaches,07 4038 3800,https://www.localsearch.com.au/profile/professionals-cairns-beaches/smithfield-qld/YC0v,1 3 Sharon St,Smithfield,QLD,4878
Professionals Cairns Beaches,07 4038 3800,https://www.localsearch.com.au/profile/professionals-cairns-beaches/smithfield-qld/Es3Z,Captain Cook Hwy,Smithfield,QLD,4878
Dunham Realty,07 4039 0338,https://www.localsearch.com.au/profile/dunham-realty/redlynch-qld/WHNy,1 Margaret St,Redlynch,QLD,4870
Study Work Grow,07 4039 3862,https://www.localsearch.com.au/profile/study-work-grow/cltnxf1j000gn08lb0k99ao37,Unit 6 149 English St,Manunda,QLD,4870
Property Shop Cairns,07 4040 2030,https://www.localsearch.com.au/profile/property-shop-cairns-cairns/cl8820b7e000w09jp8kjx22b4,116-118 Grafton St,Cairns,QLD,4870
All Areas Building & Pest Reports,07 4041 0016,https://www.localsearch.com.au/profile/all-areas-building-pest-reports/earlville-qld/dozg,,Earlville,QLD,4870
Godwin Witten Realty,07 4041 1766,https://www.localsearch.com.au/profile/godwin-witten-realty/cairns-qld-4870/I2eG,17 Aplin St,Cairns,QLD,4870
Coates Real Estate,07 4041 1999,https://www.localsearch.com.au/profile/coates-real-estate/bungalow-qld/X4OZ,154 Buchan St,Bungalow,QLD,4870
Ace Real Estate Cairns,07 4041 3843,https://www.localsearch.com.au/profile/ace-real-estate-cairns/cairns-city-qld/KVdm,,Cairns City,QLD,4870
Bohemia Resort Cairns,07 4041 7290,https://www.localsearch.com.au/profile/bohemia-resort-cairns/cairns-qld-4870/50MI,231 McLeod St,Cairns,QLD,4870
Cairns Key Real Estate Pty Ltd,07 4042 6000,https://www.localsearch.com.au/profile/cairns-key-real-estate-pty-ltd/manunda-qld/tX4A,75-77 Alfred St,MANUNDA,QLD,4870
RE/MAX Cairns,07 4044 4888,https://www.localsearch.com.au/profile/re-max-cairns/whitfield-qld/ZbeP,47-49 Heavey Cres,Whitfield,QLD,4870
Cairns South Properties,07 4045 5327,https://www.localsearch.com.au/profile/cairns-south-properties/edmonton-qld/99Pb,Shop 3/ 159 Bruce Hwy,Edmonton,QLD,4869
Lee Long Jacqui Director,07 4046 1144,https://www.localsearch.com.au/profile/lee-long-jacqui-director/cairns-qld-4870/BojZ,1A Water St,Cairns,QLD,4870
First National Real Estate Cairns,07 4046 9300,https://www.localsearch.com.au/profile/first-national-real-estate/toowoomba-city-qld/fKW4,Suite 155 Mulgrave Rd,Cairns,QLD,4870
One Stop Property,07 4051 3111,https://www.localsearch.com.au/profile/one-stop-property-cairns/cairns-qld-4870/UBKF,2 31 Anderson St,Manunda,QLD,4870
Quaid Real Estate,07 4051 3300,https://www.localsearch.com.au/profile/quaid-real-estate/cairns-qld-4870/sXa9,35 Lake St,Cairns,QLD,4870
International College of Qld,07 4051 3822,https://www.localsearch.com.au/profile/international-college-of-qld/cltnwv6l800do08ide0kyhxlq,132 Grafton St,Cairns City,QLD,4870
Cairns Commercial Property,07 4051 5944,https://www.localsearch.com.au/profile/cairns-commercial-property/cairns-qld-4870/h2Mn,14A Aplin St,Cairns,QLD,4870
Taylor Jones Property,07 4051 8000,https://www.localsearch.com.au/profile/taylor-jones-property/bungalow-qld/Pn1p,152 Buchan St,Bungalow,QLD,4870
CBRE Cairns,07 4051 8922,https://www.localsearch.com.au/profile/cbre-cairns/cairns-qld-4870/j8k9,1 20 Lake St,CAIRNS,QLD,4870
Betta Real Estate,07 4053 5153,https://www.localsearch.com.au/profile/betta-real-estate/north-cairns-qld/96Hv,399 Lake St,North Cairns,QLD,4870
Ormsby Realty,07 4053 7986,https://www.localsearch.com.au/profile/ormsby-realty/cairns-qld-4870/2DjE,2 61 McLeod St,CAIRNS,QLD,4870
Champions In Real Estate,07 4054 1181,https://www.localsearch.com.au/profile/champions-in-real-estate-or-cairns-real-estate-agents/clto2odmb00z408l434v82o5h,2 10 Carnation Dr,Mooroobool,QLD,4870
Cairns Rental Realty,07 4054 6344,https://www.localsearch.com.au/profile/cairns-rental-realty/earlville-qld/gDUD,,Bayview Heights,QLD,4868
Neater Homes,07 4055 2500,https://www.localsearch.com.au/profile/neater-constructions/cairns-qld-4870/4qhV,138 McLeod St,Cairns,QLD,4870
Lynda Henley Cairns South Properties,07 4055 5662,https://www.localsearch.com.au/profile/lynda-henley-cairns-south-properties/edmonton-qld/oIa5,3 159 Bruce Hwy,Edmonton,QLD,4869
Lynne Neal Real Estate,07 4057 4902,https://www.localsearch.com.au/profile/lynne-neal-real-estate/clifton-beach-qld/9sGF,Unit 2 5 Saunders Crt,Clifton Beach,QLD,4879
NQ Pool Supplies,07 4057 6100,https://www.localsearch.com.au/profile/nq-pool-supplies/smithfield-qld/jKbi,Unit 9 2 Maisel Cl,Smithfield,QLD,4878
Redlynch Real Estate,07 4058 0000,https://www.localsearch.com.au/profile/redlynch-real-estate/redlynch-qld/Stfy,Shop 3 2 4 Redlynch Intake Rd,Redlynch,QLD,4870
Northern Exposure Realty,07 4059 0111,https://www.localsearch.com.au/profile/northern-exposure-realty/palm-cove-qld/KuV5,28 Bokissa Rd,Palm Cove,QLD,4879
Calvin Bailey Management Rights,07 4059 1254,https://www.localsearch.com.au/profile/calvin-bailey-management-rights/clto1xrg3006z08l6f7v13oip,59 Cascade Ave,Kewarra Beach,QLD,4879
Financial Goddess,07 4080 7375,https://www.localsearch.com.au/profile/financial-goddess/cltnydbez00cr08l0fo4p4jss,,Cairns,QLD,4870
OBrien Real Estate Cairns & Beaches,07 4082 7460,https://www.localsearch.com.au/profile/obrien-real-estate-cairns-beaches/clifton-beach-qld/eNn1,55-57 Endeavour Rd,Clifton Beach,QLD,4879
Zerif,07 4086 2045,https://www.localsearch.com.au/profile/zerif/clto3i5ao010l08l126uf9jz6,5 Passage Avenue,Yorkeys Knob,QLD,4878
Kuranda Real Estate,07 4093 7577,https://www.localsearch.com.au/profile/kuranda-real-estate/kuranda-qld/X0cy,19 Coondoo St,Kuranda,QLD,4881
Explore Property Atherton Tablelands,07 4095 2277,https://www.localsearch.com.au/profile/yungaburra-tinaroo-realty/yungaburra-qld/s7uC,23 Eacham Rd,Yungaburra,QLD,4884
Elders Real Estate,07 4096 5666,https://www.localsearch.com.au/profile/elders-real-estate/malanda-qld/Ac3u,21 James St,Malanda,QLD,4885
Property Shop Four Mile,07 4098 5222,https://www.localsearch.com.au/profile/property-shop-four-mile/cltnxw51500h508l70nwnfl78,366 Port Douglas Rd,Port Douglas,QLD,4877
Century 21,07 4099 4099,https://www.localsearch.com.au/profile/century-21/port-douglas-qld/gvhu,2 40 Macrossan St,Port Douglas,QLD,4877
The Pink Real Estate Agency,07 4099 5550,https://www.localsearch.com.au/profile/the-pink-real-estate-agency/port-douglas-qld/AkWA,Unit 1 32 Macrossan St,Port Douglas,QLD,4877
Cairns Real Estate Solutions,07 4222 1122,https://www.localsearch.com.au/profile/cairns-real-estate-solutions/cairns-qld-4870/Eb0H,163 Sheridan St,Cairns,QLD,4870
Omni Property Queensland,07 4225 5021,https://www.localsearch.com.au/profile/omni-property-queensland/mount-sheridan-qld/XYn1,22 Mintaro Cres,Mount Sheridan,QLD,4868
Queensland Sotheby's International Realty,07 4237 8088,https://www.localsearch.com.au/profile/queensland-sothebys-international-realty/cltnxucvx003e09k1h4er3gsi,Shop 30 Macrossan St,Port Douglas,QLD,4877
Get Leads Australia,07 4243 9180,https://www.localsearch.com.au/profile/get-leads-australia/cm7zx0l39000y08jmf75zham3,,Kewarra Beach,QLD,4879
Harding Property Law,07 4249 3451,https://www.localsearch.com.au/profile/harding-property-law/clgkcqa9o001w08mdhs795sa6,72 74 Spence St,Cairns City,QLD,4870
First Aid Pro | First Aid Course Cairns,08 7120 2570,https://www.localsearch.com.au/profile/first-aid-pro-or-first-aid-course-cairns/cm4uvrxtp000208i91qlm8ze2,209-217 Esplanade,Cairns North,QLD,4870
Accredited Termite and Pest Management,1300 12 2072,https://www.localsearch.com.au/profile/accredited-termite-and-pest-management/parramatta-park-qld/xrbu,4 Queen St,Parramatta Park,QLD,4870
Internet Marketing Experts Cairns,1300 59 5013,https://www.localsearch.com.au/profile/internet-marketing-experts-cairns/cairns-qld-4870/bnRX,181 Mulgrave Rd,Cairns,QLD,4870
Accountants Direct - Income Tax Accountant Cairns DFO,1300 82 9746,https://www.localsearch.com.au/profile/accountants-direct-income-tax-accountant-cairns-dfo/clswuotnm000b08jtdr3eaflz,274 Mulgrave Rd,Westcourt,QLD,4870
Accountants Direct Mt Sheridan,1300 82 9746,https://www.localsearch.com.au/profile/accountants-direct-income-tax-accountants-joondalup/clswsdng8000c08jpa98iafeh,106 Barnard Dr,Mount Sheridan,QLD,4868
breakthru Cairns,1800 76 7212,https://www.localsearch.com.au/profile/breakthru-cairns/cl889o68a000o09l504e0gnah,1 220 Severin St,Cairns,QLD,4870
Maurice Blackburn Cairns,1800 90 3218,https://www.localsearch.com.au/profile/maurice-blackburn-lawyers/cairns-qld-4870/ORR3,71 McLeod St,Cairns City,QLD,4870
Devenish Law,N/A,https://www.localsearch.com.au/profile/devenish-law/cairns-qld-4870/PLjL,Level 20 Lake St,Cairns,QLD,4870
Fisher & Paykel Customer Care,N/A,https://www.localsearch.com.au/profile/fisher-paykel-customer-care/cairns-qld-4870/y2zL,,Cairns,QLD,4870
AAA Same Day Antennas,N/A,https://www.localsearch.com.au/profile/aaa-same-day-antennas/cairns-qld-4870/jfD3,,Cairns,QLD,4870
