name,phone,url,street,suburb,state,postcode
BT Designer Homes,0400 65 3334,https://www.localsearch.com.au/profile/bt-designer-homes/mooroobool-qld/KsUW,,Mooroobool,QLD,4870
Boycey's Complete Carpentry,0400 65 9225,https://www.localsearch.com.au/profile/boyceys-complete-carpentry/cl7ziaojd002i0aida8ioekb4,,Edmonton,QLD,4869
Dial A Handyman,0400 73 6685,https://www.localsearch.com.au/profile/dial-a-handyman-fnq/cairns-qld-4870/Tx3b,,Parramatta Park,QLD,4870
Mick's Carpentry & Maintenance,0401 72 4089,https://www.localsearch.com.au/profile/mick-s-carpentry-maintenance/machans-beach-qld/vesX,,Machans Beach,QLD,4878
Handy Manny,0402 02 8623,https://www.localsearch.com.au/profile/handy-manny/trinity-beach-qld/HYW5,,Trinity Beach,QLD,4879
RJM Carpentry,0402 71 1068,https://www.localsearch.com.au/profile/rjm-carpentry/clswfwvln000u08jyaj0l0422,,Manunda,QLD,4870
Hardwood & Stone Features FNQ,0403 22 2120,https://www.localsearch.com.au/profile/hardwood-stone-features-fnq/machans-beach-qld/Wemo,59 Waite St,Machans Beach,QLD,4878
Hardwood and Stone Features FNQ,0403 22 2120,https://www.localsearch.com.au/profile/hardwood-and-stone-features-fnq/machans-beach-qld/wYvb,,Machans Beach,QLD,4878
True North Homes & Renovations,0405 10 3726,https://www.localsearch.com.au/profile/true-north-homes-renovations/parramatta-park-qld/A6bt,,Parramatta Park,QLD,4870
The Carpentry Co,0407 54 0223,https://www.localsearch.com.au/profile/the-carpentry-co/cairns-qld-4870/iJhG,,Cairns,QLD,4870
Brett Oakley Builders,0407 58 9583,https://www.localsearch.com.au/profile/brett-oakley-builders/stratford-qld/xKnK,,Stratford,QLD,4870
Adaptit Cairns,0407 59 9189,https://www.localsearch.com.au/profile/adaptit-cairns/manunda-qld/hcsR,25 170 182 Mayers St,Manunda,QLD,4870
Macpark Building Co.,0408 07 2110,https://www.localsearch.com.au/profile/macpark-building-co/redlynch-qld/L4Vp,,Machans Beach,QLD,4878
Jay Campbell Carpentry Cairns,0408 76 0158,https://www.localsearch.com.au/profile/jay-campbell-carpentry-cairns/cltnzsz6c005k08jx9tz1gkjs,25 Martyn St,Parramatta Park,QLD,4870
Gary Riches Builders,0408 77 3377,https://www.localsearch.com.au/profile/gary-riches-builders/bentley-park-qld/bpBE,38 Supply Rd,Bentley Park,QLD,4869
John Pecl Builder,0408 77 3639,https://www.localsearch.com.au/profile/john-pecl-builders/edge-hill-qld/dnz7,,Edge Hill,QLD,4870
Redtail Renovations & Property Maintenance,0411 49 0843,https://www.localsearch.com.au/profile/redtail-property-maintenance/cln2mglp0000908mhdadk8lln,,Palm Cove,QLD,4879
Arcoe Handyman,0412 26 4202,https://www.localsearch.com.au/profile/arcoe-handyman/mount-sheridan-qld/faM9,4 Kalinga Ct,Mount Sheridan,QLD,4868
Barron River Carpentry,0412 73 4215,https://www.localsearch.com.au/profile/barron-river-carpentry/kewarra-beach-qld/TN7C,1 Chelsea Cl,Kewarra Beach,QLD,4879
Dea-Co,0412 77 0264,https://www.localsearch.com.au/profile/dea-co/mount-sheridan-qld/nXhj,,Mount Sheridan,QLD,4868
LJ Constructions,0417 00 4275,https://www.localsearch.com.au/profile/lj-construction/redlynch-qld/NGLU,,Redlynch,QLD,4870
Cool Build,0417 09 7013,https://www.localsearch.com.au/profile/cool-build/manoora-qld/4Ni9,,Bayview Heights,QLD,4868
A Cairns Maintenance,0417 73 7729,https://www.localsearch.com.au/profile/a-cairns-maintenance/edmonton-qld/s8jK,,Mount Sheridan,QLD,4868
Brett Perry Constructions,0418 71 6676,https://www.localsearch.com.au/profile/brett-perry-constructions/cairns-qld-4870/Pws4,5 36 Ishmael Rd,Cairns,QLD,4870
Brett Perry Constructions & Cabinets,0418 71 6676,https://www.localsearch.com.au/profile/brett-perry-constructions-and-cabinets/cl8c7nhlj000509jmf8jvd5k9,5/36 Ishmael Rd,Earlville,QLD,4870
Pav Constructions,0418 81 3001,https://www.localsearch.com.au/profile/pav-constructions/bayview-heights-qld/uRVe,,Bayview Heights,QLD,4868
Justmill Carpentry & Building,0419 71 5863,https://www.localsearch.com.au/profile/justmill-carpentry-building/smithfield-qld/d5EK,,Smithfield,QLD,4878
Wolfgang Rauh,0419 72 3992,https://www.localsearch.com.au/profile/wolfgang-rauh/mooroobool-qld/CJBI,,Mooroobool,QLD,4870
Maintain The Look,0419 75 7794,https://www.localsearch.com.au/profile/maintain-the-look/smithfield-qld/KymZ,,Smithfield,QLD,4878
HOB Constructions,0422 08 3655,https://www.localsearch.com.au/profile/hob-constructions/clogxoyc6000808jj4os6he7o,61 63 Catalano Access Rd,Goldsborough,QLD,4865
CMT Constructions FNQ,0422 16 3484,https://www.localsearch.com.au/profile/cmt-constructions-fnq/earlville-qld/WfBt,,Earlville,QLD,4870
Sharples Quality Building Solutions,0427 11 8261,https://www.localsearch.com.au/profile/sharples-quality-building-solutions/cltnxffy100em08i9ezipgjrz,7 McPhail St,Edmonton,QLD,4869
Aron Littlemore Builder,0427 77 5114,https://www.localsearch.com.au/profile/littlemore-aron-builder-carpenter/redlynch-qld/GUZe,,Redlynch,QLD,4870
FNQ Maintenance Services,0428 95 6430,https://www.localsearch.com.au/profile/fnq-maintenance-services/clr9zbsf8002808l63tnu97rr,,Parramatta Park,QLD,4870
RC Maintenance,0429 36 3731,https://www.localsearch.com.au/profile/rc-maintenance/mount-sheridan-qld/LuAw,,Mount Sheridan,QLD,4868
Dan Costigan Carpentry,0429 41 3911,https://www.localsearch.com.au/profile/dan-costigan-carpentry/parramatta-park-qld/g60L,,Parramatta Park,QLD,4870
Dunn Build,0434 62 3289,https://www.localsearch.com.au/profile/dunn-build/clbx3a3ta001a08m7eie45o6z,Varley St,Yorkeys Knob,QLD,4878
Slim Fox Home Improvements,0435 00 6608,https://www.localsearch.com.au/profile/slim-fox-home-improvements/clwy6af04000d08lc58tf4nuy,,Mooroobool,QLD,4870
Velocity Property Projects,0435 49 6791,https://www.localsearch.com.au/profile/velocity-property-projects/whitfield-qld/TyyB,,Whitfield,QLD,4870
Ultimate Linings,0437 02 2229,https://www.localsearch.com.au/profile/ultimate-linings/bungalow-qld/tbNw,155 Scott St,Bungalow,QLD,4870
Brad Blackman Builder,0438 11 6120,https://www.localsearch.com.au/profile/brad-blackman-builder/mount-sheridan-qld/eFZs,,Mount Sheridan,QLD,4868
Legends Build Group,0439 35 0215,https://www.localsearch.com.au/profile/legends-build-group/cairns-qld-4870/RUNo,,Cairns,QLD,4870
Huf Construction,0447 20 1658,https://www.localsearch.com.au/profile/huf-construction/manunda-qld/AfoD,,Manunda,QLD,4870
McIntosh Builders Pty Ltd,0447 51 2898,https://www.localsearch.com.au/profile/mcintosh-builders-pty-ltd/manoora-qld/CmWc,72 Reservoir Rd,Manoora,QLD,4870
Mill Spec Construction,0448 18 8255,https://www.localsearch.com.au/profile/mill-spec-construction/cairns-qld-4870/g8AD,,Cairns,QLD,4870
MRM Carpentry Service,0457 56 3654,https://www.localsearch.com.au/profile/mrm-carpentry-service/portsmith-qld/0TQe,Cook St,Portsmith,QLD,4870
Complete Property Repairs And Maintenance,0458 14 9925,https://www.localsearch.com.au/profile/complete-property-repairs-and-maintenance/clzuurrkn001m08lchq824l7f,,Caravonica,QLD,4878
Cairns Handyman & Property Services,0458 25 1797,https://www.localsearch.com.au/profile/cairns-handyman-and-property-maintenance/clam120cc001u08jxdjhx83gy,,Edge Hill,QLD,4870
Envision Projects,0458 99 3018,https://www.localsearch.com.au/profile/envision-projects/cairns-qld-4870/uDXY,,Cairns,QLD,4870
My Build Solutions,0477 84 2007,https://www.localsearch.com.au/profile/my-build-solutions/clo3xcnz8001e08kwdid5ffik,Shop 452 Sheridan St,Cairns North,QLD,4870
Cairns Carpentry Solutions,0491 34 1782,https://www.localsearch.com.au/profile/cairns-carpentry-solutions/clto1ui2o00sg08l5hte53sff,18 Noble Cl,Edmonton,QLD,4869
Consider It Done - Building Solutions,0499 80 0292,https://www.localsearch.com.au/profile/consider-it-done-building-solutions/portsmith-qld/jGPT,,Portsmith,QLD,4870
MB Construction QLD Pty Ltd,07 4031 0869,https://www.localsearch.com.au/profile/mb-construction-qld-pty-ltd/bungalow-qld/6YzV,8 Doyle St,BUNGALOW,QLD,4870
Cairns Carpentry & Joinery Services,07 4031 4911,https://www.localsearch.com.au/profile/cairns-carpentry-joinery-services/cairns-qld-4870/sfK4,11 13 Muir St,Cairns,QLD,4870
Building Futures Queensland,07 4032 5335,https://www.localsearch.com.au/profile/building-futures-queensland/parramatta-park-qld/zEFk,9 Palm Ave,Parramatta Park,QLD,4870
Reef City Maintenance & Construction,07 4035 4035,https://www.localsearch.com.au/profile/reef-city-maintenance-construction/earlville-qld/LgRV,8 Commercial Pl,Earlville,QLD,4870
Semrau Constructions,07 4045 3711,https://www.localsearch.com.au/profile/semrau-constructions-pty-ltd/bentley-park-qld/7CZp,23 Barcoo Cl,Bentley Park,QLD,4869
Intrust Group,07 4049 2867,https://www.localsearch.com.au/profile/intrust-group/clhdztmwy000808k2eqb3c6t3,Shed 2 55 Cook St,Portsmith,QLD,4870
R.C. Harder & Co,07 4054 1377,https://www.localsearch.com.au/profile/r-c-harder-co/earlville-qld/DGQb,,Earlville,QLD,4870
Holgate J F & G M,07 4055 4334,https://www.localsearch.com.au/profile/holgate-j-f-g-m/bentley-park-qld/Rngc,12 Compton Ct,Bentley Park,QLD,4869
GTS Carpentry Service,07 4055 9991,https://www.localsearch.com.au/profile/gts-carpentry-service/holloways-beach-qld/6LGg,21 Walnut St,Holloways Beach,QLD,4878
Corica Constructions,07 4061 7915,https://www.localsearch.com.au/profile/corica-constructions/coconuts-qld/YzdR,18 Bay Rd,Coconuts,QLD,4860
Cairns Carpenters,07 4079 0759,https://www.localsearch.com.au/profile/cairns-carpenters/clzqves1m003u08l9fb5lhttv,,Cairns City,QLD,4870
Cairns Kitchen Repairs & Renovations,N/A,https://www.localsearch.com.au/profile/cairns-kitchen-repairs-renovations/cairns-qld-4870/U2lI,,Cairns,QLD,4870
