name,phone,url,street,suburb,state,postcode
Amped Electrical NQ,0400 16 7068,https://www.localsearch.com.au/profile/amped-electrical-nq/bungalow-qld/pXBw,26 Svendsen St,Bungalow,QLD,4870
Fitted Auto Electrics & Accessories,0400 27 8000,https://www.localsearch.com.au/profile/fitted-auto-electrics-accessories/rosebery-nt/oiON,,Bentley Park,QLD,4869
McCosker ElectriCool,0400 39 5689,https://www.localsearch.com.au/profile/mccosker-electricool/gordonvale-qld/cKbM,16 Wegert Cl,Gordonvale,QLD,4865
Mission Solar and Electrical,0400 44 1038,https://www.localsearch.com.au/profile/mission-solar-and-electrical/mission-beach-qld/pyzf,13 Shepherd Cl,Mission Beach,QLD,4852
Full house Energy,0400 47 6782,https://www.localsearch.com.au/profile/full-house-energy/cltnxfy8500eq08lbe3vcd7lx,20 Marrabah Ave,Smithfield,QLD,4878
TW Electrical and HV Services,0401 22 8746,https://www.localsearch.com.au/profile/tw-electrical-and-hv-services/cairns-qld-4870/9duO,66 Swallow Road,Edmonton,QLD,4869
Big Bang Electrical And Air,0401 80 6426,https://www.localsearch.com.au/profile/big-bang-electrical-and-air/cln3uymw3000j08jm2bsrff74,,Trinity Park,QLD,4879
Brown Brothers Electrical,0402 57 9479,https://www.localsearch.com.au/profile/brown-brothers-electrical/cairns-qld-4870/73X9,,Gordonvale,QLD,4865
Switch'd Air Conditioning & Electrical,0403 80 4234,https://www.localsearch.com.au/profile/switchd-air-conditioning-and-electrical/clkptpm9a000808l6cehmengz,,Mount Sheridan,QLD,4868
Bird on a Wire Electrical,0404 15 6717,https://www.localsearch.com.au/profile/bird-on-a-wire-electrical/clifton-beach-qld/ewFA,,Clifton Beach,QLD,4879
Glen Woods Electrical,0406 18 0507,https://www.localsearch.com.au/profile/glen-woods-electrical/clthxn8gr001a08la41rzhnhr,,Edmonton,QLD,4869
Norlec Electrical,0407 03 0441,https://www.localsearch.com.au/profile/norlec-electrical/freshwater-qld/BJO1,112 Petersen St,Freshwater,QLD,4870
Buzzed Electrical + Air,0407 63 0753,https://www.localsearch.com.au/profile/buzzed-electrical-air/cltnx9mr0005008l9e3zmh6dg,6 Mills Cl,Manoora,QLD,4870
Grace Electrics,0407 63 1212,https://www.localsearch.com.au/profile/grace-electrics/cltnwf98e009008ia3bdvhz49,23 Cambrian Ave,Smithfield,QLD,4878
Gavin Evans Electrical,0407 96 6492,https://www.localsearch.com.au/profile/gavin-evans-electrical/cairns-qld-4870/5aQy,,Edmonton,QLD,4869
Warren Cini Electrical Services,0408 32 1546,https://www.localsearch.com.au/profile/warren-cini-electrical-services/cairns-qld-4870/v3nf,,Cairns City,QLD,4870
AirLec NQ,0408 55 8242,https://www.localsearch.com.au/profile/airlec-nq/cls4148yn001908jpaj2z8z18,Shed 1 7 Hargreaves St,Edmonton,QLD,4869
Kris Whelan Electrical,0408 63 9389,https://www.localsearch.com.au/profile/kris-whelan-electrical/clbx8bvhn002408l4hstv2355,,Redlynch,QLD,4870
Serene Electrical,0408 72 7357,https://www.localsearch.com.au/profile/serene-electrical/cairns-qld-4870/Qrgb,,Cairns North,QLD,4870
Cairns Cool Power,0408 75 0272,https://www.localsearch.com.au/profile/cairns-cool-power/bayview-heights-qld/6SIU,,Bayview Heights,QLD,4868
Jennings Electrical,0408 77 0581,https://www.localsearch.com.au/profile/jennings-electrical/forest-gardens-qld/z9GM,28 Alpinia Terrace,Forest Gardens,QLD,4868
Greenleaf Electrics,0408 77 4132,https://www.localsearch.com.au/profile/greenleaf-electrics/freshwater-qld/ZIpc,,Freshwater,QLD,4870
Edmonton Electrical,0408 78 3681,https://www.localsearch.com.au/profile/edmonton-electrical/cltnwi02i00b408jjbnawc0kj,23 McPhail St,Edmonton,QLD,4869
Super Global Services,0409 01 3474,https://www.localsearch.com.au/profile/super-global-services/cairns-qld-4870/NEhn,Shed 20 4-16 Tingira St,Cairns,QLD,4870
Blake Sexton Electrical,0409 71 8561,https://www.localsearch.com.au/profile/blake-sexton-electrical/cairns-qld-4870/CBhZ,32 Hannam St,Cairns City,QLD,4870
Barcou Electrics,0409 77 4857,https://www.localsearch.com.au/profile/barcou-electrics/gordonvale-qld/j9cp,82 Gordon St,Gordonvale,QLD,4865
D Chapman Electrics,0410 35 1368,https://www.localsearch.com.au/profile/d-chapman-elctrics-pty-ltd/cltnxujlw002408kx3bardagj,,Manunda,QLD,4870
ENQ Electrical Services,0411 23 9063,https://www.localsearch.com.au/profile/enq-electrical-services-cairns/manoora-qld/r0ek,,Cairns City,QLD,4870
PowerWurx NQ,0411 64 8831,https://www.localsearch.com.au/profile/powerwurx-nq/woree-qld/wGbb,76 Sunbird Dr,Woree,QLD,4868
McPaul Electrical,0412 69 2516,https://www.localsearch.com.au/profile/mcpaul-electrical/edmonton-qld/tCw5,34 Graham St,Edmonton,QLD,4869
Great Northern Electrical,0413 40 2275,https://www.localsearch.com.au/profile/great-northern-electrical/cairns-qld-4870/y0UY,,Cairns North,QLD,4870
Galvin Electrical,0413 85 6070,https://www.localsearch.com.au/profile/galvin-electrical/clwiv9yrf001908jpgbvlfclc,72 Gatton St,Parramatta Park,QLD,4870
Prizm Electrical Pty Ltd,0414 60 8174,https://www.localsearch.com.au/profile/prizm-electrical-pty-ltd/cm6iwytcp000108kt3ykr8rrx,Reef Dr,Kewarra Beach,QLD,4870
Edge Hill Electrical,0414 89 1771,https://www.localsearch.com.au/profile/edge-hill-electrical/whitfield-qld/ragW,,Whitfield,QLD,4870
Cairns & Cape Electrical,0417 74 2803,https://www.localsearch.com.au/profile/cairns-cape-electrical/woree-qld/30M1,17-19 Ponzo St,Woree,QLD,4868
Cairns Electrical and Data Services,0417 75 8232,https://www.localsearch.com.au/profile/cairns-electrical-and-data-services/clg0fw827001208l8arwz7tbg,450 Sheridan St,Cairns North,QLD,4870
Ice Ice Baby Air Conditioning & Electrical,0417 77 6791,https://www.localsearch.com.au/profile/ice-ice-baby-air-conditioning-refrigeration/earlville-qld/U4Sb,Shed 23 102 Hartley St,Bungalow,QLD,4870
Barron River Electrical Pty Ltd,0417 83 8448,https://www.localsearch.com.au/profile/barron-river-electrical/yungaburra-qld/lwLo,,Yungaburra,QLD,4884
M B & J A Walmsley,0418 15 1112,https://www.localsearch.com.au/profile/m-b-j-a-walmsley/upper-barron-qld/fg2e,,Upper Barron,QLD,4883
Clifton Beach Electrical,0418 41 7954,https://www.localsearch.com.au/profile/clifton-beach-electrical/clifton-beach-qld/Ue26,1 Hope St,Clifton Beach,QLD,4879
Seagull Electrical,0418 73 9209,https://www.localsearch.com.au/profile/seagull-electrical/clk239y4u004a08lc4mw2cb2y,,Kewarra Beach,QLD,4879
AC Electrics,0418 75 5025,https://www.localsearch.com.au/profile/ac-electrics/redlynch-qld/QQoE,57 Harvey Rd,Redlynch,QLD,4870
Go Low Electrical,0418 75 8852,https://www.localsearch.com.au/profile/go-low-electrical/clt4zorf7000a08jr7wz85kni,,Bayview Heights,QLD,4868
David Bovey Electrical,0418 77 0011,https://www.localsearch.com.au/profile/david-bovey-electrical/white-rock-qld-4868/630L,,White Rock,QLD,4868
Lee Crawford Electrical,0418 77 0440,https://www.localsearch.com.au/profile/lee-crawford-electrical/brinsmead-qld/0UnB,,Brinsmead,QLD,4870
Solartec Electrical,0418 80 5695,https://www.localsearch.com.au/profile/solartec-electrical/cairns-qld-4870/9ens,,Kanimbla,QLD,4870
Bay Electrical Contractors,0418 89 2543,https://www.localsearch.com.au/profile/bay-electrical-contractors/toogoom-qld/1cg5,,Bentley Park,QLD,4869
Razorback Electrics,0418 99 0481,https://www.localsearch.com.au/profile/razorback-electrics/smithfield-qld/Bs8E,,Smithfield,QLD,4878
Michael MacKellar Electrics,0419 54 1954,https://www.localsearch.com.au/profile/michael-mackellar-electrics/cairns-qld-4870/gAow,,Edge Hill,QLD,4870
P.W. Austin Electrical,0419 67 3021,https://www.localsearch.com.au/profile/p-w-austin-electrical/hudson-qld/Mbgc,,Hudson,QLD,4860
Enigma Electrical,0419 71 3772,https://www.localsearch.com.au/profile/enigma-electrical/cltnwxv9j003u08lccmhl84bd,Unit 52 170 Mayers St,Manunda,QLD,4870
Crichton Industrial,0419 79 8869,https://www.localsearch.com.au/profile/crichton-industrial/trinity-beach-qld/dK1P,,Trinity Beach,QLD,4879
Big Electrics,0419 89 9995,https://www.localsearch.com.au/profile/big-electrics/redlynch-qld/TbKz,,Redlynch,QLD,4870
All Light & Power,0421 05 9959,https://www.localsearch.com.au/profile/all-light-power/bentley-park-qld/hrKj,15 Ascendant Cl,Bentley Park,QLD,4869
Arga Electrics,0421 28 2091,https://www.localsearch.com.au/profile/arga-electrics/earlville-qld/dQgZ,,Earlville,QLD,4870
De Rose Electrical,0421 88 5262,https://www.localsearch.com.au/profile/de-rose-electrical/cairns-qld-4870/BBLn,,Cairns,QLD,4870
Ample Electrical,0424 18 6550,https://www.localsearch.com.au/profile/ample-electrical/cairns-qld-4870/Hzxt,,Redlynch,QLD,4870
Remedy Electrical,0424 57 6914,https://www.localsearch.com.au/profile/remedy-electrical/clto1qkhf00mi08jmcyzc3hlu,2 Flindersia St,Redlynch,QLD,4870
Allure Energy,0427 40 5081,https://www.localsearch.com.au/profile/allure-energy/clro1sp5i000a08l6hz9h80q5,,Smithfield,QLD,4878
Cairns Cable Company,0427 64 7779,https://www.localsearch.com.au/profile/cairns-cable-company/cairns-qld-4870/b4Hx,,White Rock,QLD,4868
Southern Cross Electrical FNQ,0427 90 9357,https://www.localsearch.com.au/profile/southern-cross-electrical-fnq/clf7hi4a0002h08mq4wbx1wuj,,Topaz,QLD,4885
Certus Electrical,0427 98 1769,https://www.localsearch.com.au/profile/certus-electrical/cairns-qld-4870/uB2C,,Cairns City,QLD,4870
N R G Electrical FNQ,0428 68 3183,https://www.localsearch.com.au/profile/n-r-g-electrical-fnq-pty-ltd/port-douglas-qld/ArFe,,Port Douglas,QLD,4877
Southern Cross Electrics & Air Conditioning,0428 86 3324,https://www.localsearch.com.au/profile/southern-cross-electrics-air-conditioning/kewarra-beach-qld/agsV,Salvado Drive,Smithfield,QLD,4878
Stratford Electrical Contractors,0429 14 5503,https://www.localsearch.com.au/profile/stratford-electrical-contractors-pty-ltd/stratford-qld/ny6O,,Stratford,QLD,4870
Woodburn Electrical,0429 40 5491,https://www.localsearch.com.au/profile/woodburn-electrical/cairns-city-qld/VkUo,,Cairns City,QLD,4870
Pear Electrical Pty Ltd,0431 07 1779,https://www.localsearch.com.au/profile/pear-electrical-pty-ltd/cm9kik7ek000108jvfyw6d6yl,,Edge Hill,QLD,4870
TWT Electrical & Solar,0431 48 1045,https://www.localsearch.com.au/profile/twt-electrical-and-solar/clto1desk00ee08jp1f3lbkpw,18 Weld Cres,Smithfield,QLD,4878
Tropics Electrical,0431 91 5388,https://www.localsearch.com.au/profile/tropics-electrical/bentley-park-qld/mMuO,2 Blackwood Pl,Bentley Park,QLD,4869
CJD Electrical,0432 23 2214,https://www.localsearch.com.au/profile/cjd-electrical/cairns-qld-4870/rBOU,,Gordonvale,QLD,4865
Cooper Norman Security and Electrical,0432 37 0131,https://www.localsearch.com.au/profile/cooper-norman-security-and-electrical/clto0lhyt00xh08l83v6wb1x6,14 Windamere Cl,Brinsmead,QLD,4870
Port Douglas Electrician,0432 42 6049,https://www.localsearch.com.au/profile/port-douglas-electrician/clto0j3xp00a608ju018l3kp6,,Mowbray,QLD,4877
Smart Elec,0433 15 8941,https://www.localsearch.com.au/profile/smart-elec/clgljnrs5002308mtb9ps00xl,Shop 8 15 Catherine St,Malanda,QLD,4885
Northern Connections,0434 40 1825,https://www.localsearch.com.au/profile/northern-connections/clmy2wkpd000c08m76er243rn,,Mount Sheridan,QLD,4868
White Rock Electrical Contractors,0435 93 5639,https://www.localsearch.com.au/profile/white-rock-electrical-contractors/trinity-beach-qld/OG7y,,Trinity Beach,QLD,4879
Hussey Electrical,0437 32 2406,https://www.localsearch.com.au/profile/hussey-electrical/clto421iy00di08l5dv8p5t50,,Edmonton,QLD,4869
Rossgo's Electrical,0437 65 0754,https://www.localsearch.com.au/profile/rossgo-s-electrical/goldsborough-qld/JhjZ,,Edge Hill,QLD,4870
Recharged Air & Electrical,0437 87 6652,https://www.localsearch.com.au/profile/recharged-air-electrical/portsmith-qld/TQRP,5/ 34 Magazine St,Stratford,QLD,4870
Marsh Electrical FNQ,0437 97 3016,https://www.localsearch.com.au/profile/marsh-electrical-fnq/malanda-qld/HzDY,,Malanda,QLD,4885
Pyramid Electrics Gordonvale,0438 33 5575,https://www.localsearch.com.au/profile/pyramid-electrics/gordonvale-qld/MFa9,,Gordonvale,QLD,4865
Cairns Electrical Contractors,0438 83 9599,https://www.localsearch.com.au/profile/cairns-electrical-contractors/speewah-qld/1UMa,,Speewah,QLD,4881
Legends Build Group,0439 35 0215,https://www.localsearch.com.au/profile/legends-build-group/cairns-qld-4870/RUNo,,Cairns,QLD,4870
Cold Energy Automation,0447 56 3219,https://www.localsearch.com.au/profile/cold-energy-automation/cairns-qld-4870/4vfc,Shop 2 50 Vickers St,Edmonton,QLD,4869
Vidler Electrical,0448 07 1781,https://www.localsearch.com.au/profile/vidler-electrical/yungaburra-qld/X84l,,Yungaburra,QLD,4884
Endurance Electrical,0448 11 3390,https://www.localsearch.com.au/profile/endurance-electrical/smithfield-qld/hZkU,,Smithfield,QLD,4878
S & T Electrical,0448 77 4048,https://www.localsearch.com.au/profile/s-t-electrical/atherton-qld/hUVi,,Yungaburra,QLD,4884
EKR Electrical,0448 85 5839,https://www.localsearch.com.au/profile/ekr-electrical/clto2qv5d013c08lg3kry8uby,18 Nov,Brinsmead,QLD,4870
Hot Energy Electrical Service,0448 88 4666,https://www.localsearch.com.au/profile/hot-energy-electrical-service/cltnzxzwi000x08l46m82bcws,Sapphire Cl,Bayview Heights,QLD,4868
Solar Energy Solutions NQ,0449 58 7533,https://www.localsearch.com.au/profile/solar-energy-solutions-nq/cltnw9966006t08joelptd4dz,84 Mount Peter Rd,Edmonton,QLD,4869
New Age Electrical and Data,0473 04 0388,https://www.localsearch.com.au/profile/new-age-electrical-and-data/clto3zq5u00l208l1dhc4fhhi,Glen Boughton St,Aeroglen,QLD,4870
RCC Electrical,0474 14 0003,https://www.localsearch.com.au/profile/rcc-electrical/earlville-qld/yTkF,8 Commercial Pl,Earlville,QLD,4870
Smithys Air & Electrical,0475 76 8869,https://www.localsearch.com.au/profile/smithy-s-nq-electrical/gordonvale-qld/mqjN,29 Buzacott St,Gordonvale,QLD,4865
North Trade Services,0477 20 0088,https://www.localsearch.com.au/profile/north-trade-services/cl7mr9ni7000409l4hv9h149w,,Malanda,QLD,4885
Elecquity Electrical Contractors,0483 91 4741,https://www.localsearch.com.au/profile/elecquity-electrical-contractors/cljkoo29p000808mm98f5bdaa,,Bayview Heights,QLD,4868
Last Frontier Electrical,0484 93 2284,https://www.localsearch.com.au/profile/last-frontier-electrical/port-douglas-qld/NYQU,,Port Douglas,QLD,4877
Frosty Watts,0487 32 9433,https://www.localsearch.com.au/profile/frosty-watts-electrical-and-air-conditioning/cll6m157g000808l36l0e8ntd,,Redlynch,QLD,4870
Palm Cove Electrical,0488 02 5649,https://www.localsearch.com.au/profile/palm-cove-electrical/palm-cove-qld/8Xry,,Clifton Beach,QLD,4879
Cloud Nine Electrical Enterprises,0488 72 1643,https://www.localsearch.com.au/profile/cloud-nine-electrical-enterprises/redlynch-qld/pcsi,,Redlynch,QLD,4870
Lifestyle Lifts & Electrical,0488 75 4387,https://www.localsearch.com.au/profile/lifestyle-lifts-electrical/cairns-qld-4870/k1Mn,,Mooroobool,QLD,4870
Hawk Electrical Contracting,0488 96 5692,https://www.localsearch.com.au/profile/hawk-electrical-contracting-pty-ltd/peeramon-qld/uYed,,Peeramon,QLD,4885
Cairns Stellar Electrical,0488 97 8670,https://www.localsearch.com.au/profile/cairns-stellar-electrical/cairns-central-qld/NLMX,,Woree,QLD,4868
Mr Cairns,0491 90 1351,https://www.localsearch.com.au/profile/mr-cairns/clxcd9wwo000a08lccxmmf294,,Parramatta Park,QLD,4870
Gridline Electrical & Airconditioning,0499 99 8478,https://www.localsearch.com.au/profile/gridline-electrical-airconditioning/parramatta-park-qld/S7T8,,Cairns City,QLD,4870
Lighthouse Electrical Solutions,07 3184 6662,https://www.localsearch.com.au/profile/lighthouse-electrical-solutions/port-douglas-qld/3hLJ,5 50 Owen St,Craiglie,QLD,4877
GMH Solutions,07 4000 4786,https://www.localsearch.com.au/profile/gmh-electrical-contracting/bungalow-qld/pMsJ,84 Scott St,Bungalow,QLD,4870
East Coast Energy Solutions Cairns,07 4019 2882,https://www.localsearch.com.au/profile/east-coast-energy-solutions/stratford-qld/AZoV,3 200 Spence St,Cairns,QLD,4870
Integral Electrics Qld,07 4028 3116,https://www.localsearch.com.au/profile/integral-electrics-qld/manunda-qld/F18s,205 Buchan St,Bungalow,QLD,4870
Keadeen Electrical,07 4031 4134,https://www.localsearch.com.au/profile/keadeen-electrical/manunda-qld/jUi9,,Manunda,QLD,4870
Power & Data Support Services,07 4031 6196,https://www.localsearch.com.au/profile/power-data-support-services/cairns-qld-4870/LtlC,Unit 6 3 Donaldson St,Manunda,QLD,4870
North Point Power & Data,07 4032 3823,https://www.localsearch.com.au/profile/north-point-power-data/cairns-qld-4870/BMG8,Shed 202 McCormack St,Manunda,QLD,4870
Anytime Cairns Electrical,07 4034 2588,https://www.localsearch.com.au/profile/anytime-cairns-electrical/brinsmead-qld/2C8U,,Brinsmead,QLD,4870
Northern Specialised Electrical,07 4035 1333,https://www.localsearch.com.au/profile/northern-specialised-electrical/portsmith-qld/mgaS,Shed 13 Toohey St,Portsmith,QLD,4870
Cairns Excel Electrics,07 4035 3551,https://www.localsearch.com.au/profile/cairns-excel-electrics/bungalow-qld/9kUd,115 Brown St,Bungalow,QLD,4870
Reef City Maintenance & Construction,07 4035 4035,https://www.localsearch.com.au/profile/reef-city-maintenance-construction/earlville-qld/LgRV,8 Commercial Pl,Earlville,QLD,4870
Toucan Electrics,07 4035 5110,https://www.localsearch.com.au/profile/toucan-electrics-air-conditioning/portsmith-qld/SCa0,10 Bramp Cl,Portsmith,QLD,4870
Tinus Electrical,07 4035 5555,https://www.localsearch.com.au/profile/tinus-electrical-pty-ltd/bungalow-qld/jifp,Unit 6 222 Hartley St,Bungalow,QLD,4870
PASMA Electrical,07 4035 5855,https://www.localsearch.com.au/profile/pasma-electrical/portsmith-qld/2jJe,8/4-16 Tingira St,Portsmith,QLD,4870
Mills Electrics,07 4038 3131,https://www.localsearch.com.au/profile/mills-electrics/cairns-qld-4870/8lfe,,Cairns,QLD,4870
Don Hall Air Conditioning & Electrical,07 4038 3940,https://www.localsearch.com.au/profile/don-hall-air-conditioning-electrical/smithfield-qld/fc9T,Stanton Place Unit 2 2-4 Stanton Rd,Smithfield,QLD,4878
"Don Hall Air Conditioning, Refrigeration Services & Electrical",07 4038 3940,https://www.localsearch.com.au/profile/don-hall-air-conditioning-refrigeration-services-electrical/smithfield-qld/UDhZ,Stanton Place Unit 2 2-4 Stanton Rd,Smithfield,QLD,4878
Bang Electric,07 4039 0722,https://www.localsearch.com.au/profile/bang-electric/redlynch-qld/Owe9,,Redlynch,QLD,4870
MAE Refrigeration,07 4039 3794,https://www.localsearch.com.au/profile/mae-refrigeration/redlynch-qld/syec,69 Aumuller St,Portsmith,QLD,4870
Messina Air Conditioning & Refrigeration,07 4039 3794,https://www.localsearch.com.au/profile/messina-air-conditioning-refrigeration/redlynch-qld/7lmD,69 Aumuller St,Portsmith,QLD,4870
G-Solar & Electrical,07 4039 4914,https://www.localsearch.com.au/profile/g-solar-and-electrical/clto2mp5u00pd08joblq5299s,32 Magazine St,Stratford,QLD,4870
Allpower Electrical Wholesalers Pty Ltd,07 4041 3030,https://www.localsearch.com.au/profile/allpower-electrical-wholesalers-pty-ltd/bungalow-qld/sIuo,132 Scott St,Bungalow,QLD,4870
O'Brien Electrical Cairns Central,07 4045 0028,https://www.localsearch.com.au/profile/o-brien-electrical-cairns-central/edmonton-qld/V7hQ,2 107 Draper St,Portsmith,QLD,4870
Southside Electrical Cairns,07 4045 5695,https://www.localsearch.com.au/profile/southside-electrical-cairns/cltnyu27v00s108js7rxcba3k,Shed 3 52 Supply Rd,Bentley Park,QLD,4869
Intrust Group,07 4049 2867,https://www.localsearch.com.au/profile/intrust-group/clhdztmwy000808k2eqb3c6t3,Shed 2 55 Cook St,Portsmith,QLD,4870
Richardson's Electrical Service,07 4051 7711,https://www.localsearch.com.au/profile/richardson-s-electrical-service/bungalow-qld/UWrZ,1 Rodda St,Bungalow,QLD,4870
Cairns Synergy Electrical,07 4053 2159,https://www.localsearch.com.au/profile/cairns-synergy-electrical/manunda-qld/yL1X,202-204 McCormack St,Manunda,QLD,4870
Phaze Solutions,07 4054 3953,https://www.localsearch.com.au/profile/phaze-solutions/woree-qld/3YM0,,Bungalow,QLD,4870
Bees Electrics,07 4054 7609,https://www.localsearch.com.au/profile/bees-electrics/woree-qld/EbT8,Shed 23-27 Atticus St,Woree,QLD,4868
Robon Electrical,07 4055 0001,https://www.localsearch.com.au/profile/robon-electrical/holloways-beach-qld/CsZ1,,Holloways Beach,QLD,4878
Earthed Electrical and Data,07 4055 2853,https://www.localsearch.com.au/profile/earthed-electrical-and-data/clf94ky2w002l08muhz1mgq52,7 102 Hartley St,Bungalow,QLD,4870
Essential Air Solutions Pty Ltd,07 4057 5966,https://www.localsearch.com.au/profile/essential-air-solutions-pty-ltd/cltnxs77m004108l25qel3ce0,Shed 5 Salvado Dr,Smithfield,QLD,4878
Airfirst Air Conditioning & Electrical Pty Ltd,07 4058 3222,https://www.localsearch.com.au/profile/airfirst-air-conditioning-electrical-pty-ltd/stratford-qld/beld,16 Ponzo St,Woree,QLD,4868
Power Tech Electrical Cairns,07 4079 0073,https://www.localsearch.com.au/profile/power-tech-electrical-cairns/cm7io11f1000008jr03qtad6j,,Cairns North,QLD,4870
Power Tech Electrical Cairns,07 4079 0073,https://www.localsearch.com.au/profile/power-tech-electrical-cairns/cm7inv53w000108l46u6veg2i,,Whitfield,QLD,4870
Airfirst Air Conditioning & Electrical Pty Ltd,07 4092 7994,https://www.localsearch.com.au/profile/airfirst-air-conditioning-electrical-pty-ltd/mareeba-qld/4gLP,17 Reynolds St,Mareeba,QLD,4880
Des Brennan Electrical,07 4096 5668,https://www.localsearch.com.au/profile/des-brennan-electrical/malanda-qld/Nd6v,11 Catherine St,Malanda,QLD,4885
Port Douglas Electrics,07 4098 5933,https://www.localsearch.com.au/profile/port-douglas-electrics/craiglie-qld/KEYw,5957 Old Port Rd,Craiglie,QLD,4877
Dolphin Electrical,07 4099 1657,https://www.localsearch.com.au/profile/dolphin-electrical/craiglie-qld/50LU,27 Owen St,CRAIGLIE,QLD,4877
Northern Air Repair,07 4229 9050,https://www.localsearch.com.au/profile/northern-air-repair/manunda-qld/oYrf,,Woree,QLD,4868
Greencell Energy Cairns,07 4242 5908,https://www.localsearch.com.au/profile/greencell-energy/woree-qld/3w6X,2 33 Ponzo St,Woree,QLD,4868
Huzgroup Electrical,07 4243 3503,https://www.localsearch.com.au/profile/huzgroup-electrical/gordonvale-qld/RLtX,312 Highleigh Rd,Gordonvale,QLD,4865
Norsafe - Test & Tag,07 4243 3555,https://www.localsearch.com.au/profile/norsafe-test-and-tag/manunda-qld/XsCh,Unit 106 Hoare St,MANUNDA,QLD,4870
Great Energy,07 4256 5728,https://www.localsearch.com.au/profile/great-energy/clxckr2nd002k08lcfwma9ivb,80 Fearnley St,Portsmith,QLD,4870
Alphacool Cairns,1300 32 5742,https://www.localsearch.com.au/profile/alphacool/portsmith-qld/tm1J,71 Aumuller St,Portsmith,QLD,4870
Alphacool Port Douglas,1300 32 5742,https://www.localsearch.com.au/profile/alphacool/craiglie-qld/P5kw,18 20 Owen St,Craiglie,QLD,4877
Substation Solutions,N/A,https://www.localsearch.com.au/profile/substation-solutions/cairns-qld-4870/Iw4Z,,Cairns,QLD,4870
Glenn Gubiani Electrical Contractor,N/A,https://www.localsearch.com.au/profile/glenn-gubiani-electrical-contractor/cairns-qld-4870/Hjx8,,Earlville,QLD,4870
